Company,City,State,ZIP,Phone,Email,Website
"Rembrandt Enterprises, Inc.",Concord,NC,28027,(800) 337-7663,wade.walker@rembrandt1995.com,https://www.rembrandtroofing.com
The Roofing Group,Winston Salem,NC,27104,(336) 240-6834,sean.m@theroofinggroup.com,https://www.theroofinggroup.com
Carolina Home Exteriors,Serving theNew Bern Area,,,(252) 637-6599,david@carolinahomeexteriors.com,https://carolinahomeexteriors.com
Robertson Painting Co,Raleigh,NC,27613,(919) 868-2630,rpainting@nc.rr.com,
Shield Roofing Co,Holly Springs,NC,27540,(919) 291-3400,shieldroofingco@gmail.com,https://shieldroofingnc.com
Renewvations Unlimited,Serving theHuntersville Area,,,(704) 223-5735,renewvationsunlimited@gmail.com,http://renewvationsunlimited.com
Allied Building Products,Wilmington,NC,28401,(910) 815-6723,joann.gardner@alliedbuilding.com,https://www.becn.com/welcome-to-beacon
Armor Roofing,High Point,NC,27265,(336) 999-4940,ar@ncarmorroofing.com,https://ncarmorroofing.com
Allied Roofing Company,Clemmons,NC,27012,(336) 778-0551,schultz338@hotmail.com,
Sh Barnes East Coast Roofing,Fayetteville,NC,28304,(910) 429-0509,souther@barnesecr.com,https://www.eastcoastroofingnc.com
Belews Creek Construction,Belews Creek,NC,27009,(336) 362-6343,dennissteele7@gmail.com,https://www.belewscreekconstruction.com/home
Graham Roofing Inc,Salisbury,NC,28144,(704) 213-0459,graham-roofing@hotmail.com,
"Faile Roofing, Llc",Clover,SC,29710,(803) 393-3750,ryan@faileroofing.com,https://www.faileroofing.com
Oglesby Contracting Co,Charlotte,NC,28269,(704) 597-7020,mikeo@oglesbycontracting.com,https://www.oglesbycontracting.com
Boykin Construction & Roofing,Serving theGoldsboro Area,,,(919) 689-2434,boykin.randal@gmail.com,
Tecta America,Indian Trail,NC,28079,(704) 882-1200,dayton@tectaamerica.com,http://www.tectaamerica.com
San-Lee Roofing & Construction,Sanford,NC,27330,(919) 842-2608,ctblack81@gmail.com,
Affordable Roofing & Home Repair,Hickory,NC,28601,(828) 261-9924,affordableroofingcompany@gmail.com,http://affordableroofinghomerepair.com
Mendoza Construction,Greensboro,NC,27406,(336) 382-4169,e_larios04@hotmail.com,
"The Homepro Depot, Llc",Faith,NC,28041,(704) 594-5115,rh@thehomeprodepot.com,https://www.thehomeprodepot.com
Always On Top Metal Roofing,Serving theWilmington Area,,,(910) 367-1740,sbayley01@gmail.com,http://www.alwaysontopmetalroofing.com
Ngre Roofing Home Improvements. Inc.,Winston Salem,NC,27103,(336) 575-3957,ngrehomeimprovements@gmail.com,https://ngrehomeimprovements.com
Atlas Construction Services,Serving theSalisbury Area,,,(980) 330-1035,atlasconstructionservicesllc@gmail.com,http://www.atlasroofingandrestoration.net
Professional Roofing,Mount Airy,NC,27030,(336) 755-3794,bryant@prsnc.com,http://www.prsnc.com
Second Look Construction,Mint Hill,NC,28227,(704) 226-2985,derikrharris@gmail.com,http://www.secondlookconstruction.com
"Vision Roofing, Llc",Charlotte,NC,28278,(704) 312-8558,dnamirr@visionroofingllc.com,https://www.visionroofingllc.com
Smart Construction,Serving theChapel Hill Area,,,(855) 379-5609,robertocast1975@gmail.com,http://www.smartconstructionnc.com
Doug's Disaster Relief,Hubert,NC,28539,(855) 368-4737,doug@dougsdr.com,https://dougsdr.com
Rh Roofing,Greensboro,NC,27406,(336) 852-4897,mhuggins@triad.rr.com,
Carolina Roofing & Renovations,New Bern,NC,28560,(252) 670-4867,carolinaroofingandrenovations@gmail.com,
1St Choice Construction,Mooresville,NC,28115,(704) 892-9822,jrowe@1choiceconstruction.com,https://1choiceconstruction.com
"Exterior Recovery, Inc",Youngsville,NC,27596,(919) 554-3025,woneal@bakerroofing.com,https://www.exterior-recovery.com
Carolina United Roofing & Construction,Chapel Hill,NC,27515,(919) 260-3803,ja@carolinaunitedroofing.com,https://www.carolinaunitedroofing.com
Safrit's Building Supply,Beaufort,NC,28516,(252) 728-3843,tquinn@safrits.com,https://safrits.com
Hrock Construction & Painting,Seven Devils,NC,28604,(828) 964-7350,hrockconstruction@gmail.com,
336 Roofing Company,Mc Leansville,NC,27301,(336) 501-1745,salezislife@gmail.com,
King's Haywood Construction,Waynesville,NC,28786,(828) 246-2193,kingshaywood@gmail.com,https://kingshaywood.com
Stilwell Roofing,Arden,NC,28704,(828) 708-0560,stilwellroofing@gmail.com,https://www.roofingardennc.com
All Seasons Sunrooms,Wallace,NC,28466,(910) 782-2258,allseasonsroofingnynj@gmail.com,https://www.allseasonsroofinginc.com
Chapman Joe Roofing Inc,Lake Toxaway,NC,28747,(828) 883-9582,chajoe@citcom.net,http://www.joechapmanroofing.com
Mountain Metal Werks & Construction,Candler,NC,28715,(828) 423-3083,mountainmetalwerks@gmail.com,
Extreme Homeworks,Mount Juliet,TN,37122,(888) 766-3156,mlamontagne@afternic.com,https://www.afternic.com:443/forsale/extremeroofers.com
Rick's Remodeling,Serving theWinston Salem Area,,,(336) 906-5802,joelle.21@hotmail.com,
Remodeling And Construction Llc,Laurinburg,NC,28352,(910) 217-0934,casth@live.com,
B & B Roofing Inc,Holly Springs,NC,27540,(919) 552-0944,johnb.bbroofing@gmail.com,https://www.bandbroofingnc.com
Tlc Restoration Llc,Tallmadge,OH,44278,(330) 488-7191,tlcrestoration@gmail.com,https://www.tlcdoesitall.com
Lan-Way Roofing Co Inc,Raleigh,NC,27615,(919) 872-3102,beidson@lanwayroofing.com,http://lanwayroofing.com
Five Star Roofing,Serving theMarion Area,,,(828) 808-6303,alicesterjoness@gmail.com,http://harveysfivestarroofing.com
Muter Construction,Zebulon,NC,27597,(919) 404-8330,damonj@danddcc.com,https://www.muterconstruction.com
Bci Metal Roofing,Bladenboro,NC,28320,(910) 799-4245,mark@bcimetalroofing.com,https://bcimetalroofing.com
Capital City Roofing,Wendell,NC,27591,(919) 366-1850,brooks@capitalcityroofing.com,https://www.capitalcityroofing.com
Coastal Roofing & Siding Inc,Powells Point,NC,27966,(252) 564-7859,coastalrands@hotmail.com,https://www.coastalroofing.net
Carolina Renovations,Tar Heel,NC,28392,(910) 703-0652,carolinarenovation@live.com,
Fences By Jsj,Alexander,NC,28701,(828) 775-4197,jsjfencing@gmail.com,http://www.jsjfencing.com
Larry Barefoot General Contractor,Angier,NC,27501,(910) 897-6681,mmcnerny@msn.com,https://www.buildzoom.com/contractor/larry-barefoot-general-contactor
J D Roofing,Trinity,NC,27370,(336) 442-6593,jdroofing89@gmail.com,
Hollingsworth Roofing,Charlotte,NC,28205,(704) 567-2107,craig@hollingsworthroofing.com,http://www.hollingsworthroofing.com
Summit Renovations,Charlotte,NC,28216,(704) 502-8271,rodgers@summitdoneit.com,https://summit-renovation.com
"Fairfield Roof & Exterior, Llc",Chapel Hill,NC,27516,(919) 240-7037,sandy@fairfieldroof.com,https://www.fairfieldroof.com
Shelter Construction Services,Sneads Ferry,NC,28460,(336) 578-6731,twilson373@gmail.com,http://shelterconstructionservices.com
Martinez Painting,Wilson,NC,27893,(252) 373-4452,chocoventura19@hotmail.com,
Vernon Roof Experts,Collinsville,VA,24078,(276) 340-9158,vernonroofexperts@gmail.com,https://vernonroofexperts.com
Crown Roofing,Raleigh,NC,27609,(919) 427-7360,crownroofingnc@gmail.com,https://crownroofingnc.net
"Raise The Roof Builders, Llc",Raleigh,NC,27609,(919) 323-2676,ricky@raisetheroofbuildersllc.com,http://raisetheroofbuildersllc.com
Construction Metals Inc,Statesville,NC,28677,(704) 871-8704,bslayton@cmpmetalsystems.com,https://cmpmetalsystems.com
"Kempsville Roofing, Inc.",Virginia Beach,VA,23457,(757) 641-3367,lucyoder@gmail.com,http://kempsvilleroofing.com
Hlh Roofing,Huntersville,NC,28078,(704) 773-9065,hlhroofing@gmail.com,http://hlhroofing.com
Affordable Energy Solutions,Goldsboro,NC,27530,(919) 778-3337,robert@aesnc.com,
Hatch Homes,Charlotte,NC,28262,(980) 355-2075,bill@hatchyourhome.com,https://www.hatchyourhome.com
Grace Roofing And Construction Llc,,,,(336) 537-5441,graceroofingnc@gmail.com,https://www.graceroofingnc.com
"Conover Construction & Roofing, Inc.",Hickory,NC,28602,(828) 304-0103,darryl@conoverroofing.com,https://www.conoverroofing.com
Simon Roofing,Garner,NC,27529,(919) 773-2679,kellyw@simonroofing.com,http://www.simonroofing.com
Hammertime Roofing,Greensboro,NC,27407,(336) 847-9528,hammertimeroofing@gmail.com,https://www.hammertimeroofing-nc.com
"Carolina Custom Exteriors, Inc.",Asheville,NC,28806,(828) 232-0402,carolinacustomex@gmail.com,https://www.carolinacustomexteriorsinc.com
"My Roof Repair, Llc",Lincolnton,NC,28092,(980) 722-6892,myroofrepairnc@gmail.com,http://www.myroofrepairnc.com
Green Roofing,Canton,NC,28716,(828) 648-4522,mj2543510@gmail.com,https://www.greenroofingnc.net
Homework,Serving theForest City Area,,,(828) 429-6410,glenndinga@gmail.com,
Waynco Roofing Co,Serving theShelby Area,,,(704) 814-9566,wayne@wayncoroofing.com,http://www.wayncoroofing.com
Coastal Roofing Co,Shallotte,NC,28470,(910) 842-7663,coastalroofingco@gmail.com,
Canady Roofing,Serving theWilmington Area,,,(910) 762-7663,danielbrunsonroofing@gmail.com,https://llr.sc.gov/pol/contractors
W.M. & Associates Roofing Systems Specialist,Serving theGreensboro Area,,,(919) 527-4310,roofingsystemsbiz@outlook.com,https://roofingsystems.biz
American Roofing Of Concord,Concord,NC,28025,(704) 786-6838,corporate3@gmail.com,
"Roof Care Of Central Florida, Llc",Raleigh,NC,27607,(800) 827-7078,roofcareofcfl@gmail.com,https://www.roofcareflorida.com
Simon Roofing & Sheet Metal Corp.,Charlotte,NC,28213,(704) 599-0440,kditosti@simonroofing.com,https://www.simonroofing.com
Roofing Solution 2 Roofing Solution 2,Concord,NC,28025,(704) 652-1759,roofingsolution2@gmail.com,
Ram Roofing & Remodeling,Hampstead,NC,28443,(910) 726-5921,ramremodelinggroup@gmail.com,
Horizon Roofing & Restoration,Charlotte,NC,28208,(980) 275-1085,justinsimpson@horizonrr.com,http://horizonrr.com
Southern Roofing & Construction,Hudson,NC,28638,(828) 216-1878,southernconstructionandroofing@gmail.com,
Grahams Roofing And Painting,Fayetteville,NC,28306,(910) 302-3278,metalroofing88@gmail.com,https://contactgrahams.wixsite.com/completeoverhaul
Roof Depot,Charlotte,NC,28208,(704) 525-6442,rluciano@roofdepotpros.com,https://www.roofdepot.com
Referrals Roofing,Charlotte,NC,28213,(704) 208-4396,referralsroofing@gmail.com,https://referralsroofing.com
"Ultra Service Construction, Llc",Charlotte,NC,28241,(704) 491-9836,getultra@hotmail.com,https://www.getultraservice.com
Pait's Home Improvements Inc,Lumberton,NC,28360,(910) 241-4261,rbpait@nc.rr.com,
New Dimension Roofing,Fort Mill,SC,29715,(704) 457-9179,fredsconsulting@gmail.com,
Dave's Roofing Co.,Morganton,NC,28655,(828) 584-6153,davesroofing1@gmail.com,
Best Distributing Company,Goldsboro,NC,27530,(919) 735-1651,goldsboro@bestdistributing.com,https://www.becn.com/welcome-to-beacon
Truline Roofing,Charlotte,NC,28270,(704) 366-4742,chester@trulineroofing.com,
Jo's Affordable Roofing,Cleveland,NC,27013,(704) 929-0624,josmetalroofing@gmail.com,
L & W Home Improvements,Penrose,NC,28766,(828) 883-9870,wparris3@gmail.com,
Thorne Roofing And Siding,Chapel Hill,NC,27514,(919) 946-0062,rt7788@gmail.com,
Grahams Roofing And Construction,Serving theFayetteville Area,,,(910) 689-8729,contactgrahams@gmail.com,https://contactgrahams.wixsite.com/completeoverhaul
Mighty Hands Roofing,Clayton,NC,27520,(919) 697-1145,jefferypatterson@nc.rr.com,http://www.mightyhandsroofing.com
Mba Construction,Lincolnton,NC,28092,(980) 241-1260,me58488@hotmail.com,
Baker Roofing Company,Charlotte,NC,28217,(704) 587-3737,fbaker@bakerroofing.com,https://bakerroofing.com/charlotte-roofing-company
"Holloway Builders, Inc,",Eastover,NC,28312,(910) 973-3539,dholloway511@gmail.com,
Red Rhino Roofing,Oak Ridge,NC,27310,(336) 580-4426,redrhinoroofing@gmail.com,https://www.redrhinoroofing.com
Catamount Roofing,Reidsville,NC,27320,(336) 552-9663,paul.setliff@gmail.com,https://www.catamountroofing.com
Clifton Lane Construction,Atlantic Beach,NC,28512,(855) 627-6637,olivia@cliftonlaneconstruction.com,https://www.cliftonlaneconstruction.com
Acc Roofing & Construction,Raleigh,NC,27606,(919) 219-9937,accroofingnc@gmail.com,https://accroofingandconstruction.com/
Greensboro City Roofing,Serving theGreensboro Area,,,(336) 500-9351,thenkpa1@gmail.com,https://www.greensborocityroofing.com
R.W. Mason Roofing,Carolina Beach,NC,28428,(910) 707-0668,missy@rwmasonroofing.com,https://www.rwmasonroofing.com
Home Logic Handyman Services,Carrboro,NC,27510,(919) 883-8926,jay@homelogichandyman.com,http://www.homelogichandyman.com
"R & J Commercial Contracting, Inc.",Swansboro,NC,28584,(910) 326-5855,aj@rjccinc.com,http://rjccinc.com
Clyde Hance Construction,Serving theDurham Area,,,(919) 632-1097,clydehance@gmail.com,http://www.hanceconstructioncompany.com
Can Do Handyman,Greensboro,NC,27405,(336) 988-8563,roseroofingnc@gmail.com,
Top Armour Contracting,Serving thePinehurst Area,,,(910) 890-8760,cbryant@toparmour.net,https://toparmourcontracting.com
Ai-Mega Construction,Matthews,NC,28105,(704) 882-0525,rfenner@qualitas-health.com,https://www.qualitas-health.com
Rumble Bee Roofing,Indian Trail,NC,28079,(704) 993-8181,mike@rumblebeeroofing.com,
S & W Gutters And Construction,New Bern,NC,28560,(252) 474-9233,swgutters@hotmail.com,https://swgutters.net
Walker Brown Roofing-Archtctrl,Chapel Hill,NC,27516,(919) 942-0776,walkerbrownroofing@hotmail.com,https://www.walkerbrownroofing.com
Spotless Mobile Powerwash,Durham,NC,27703,(919) 695-9421,gkalaitzidis07@gmail.com,https://spotlessmobilepowerwash.com
Triad Installations,Greensboro,NC,27409,(336) 854-5706,richwbarlow@gmail.com,https://triadinstallations.com
Allied Building Products,Raleigh,NC,27610,(919) 231-6355,thomas.fetzer@alliedbuilding.com,https://www.becn.com/welcome-to-beacon
Powerhome Solar,Raleigh,NC,27615,(833) 423-1132,cmack@powerhome.com,https://www.powerhome.com
Your Choice Roofing,Monroe,NC,28110,(704) 254-6411,yourchoiceroofing123@gmail.com,http://www.yourchoiceroofing.net
Carolina Exteriors,Asheboro,NC,27205,(336) 857-2654,carolinaext@rtmc.net,
Kramer Custom Roofing,Elizabeth City,NC,27909,(252) 335-0674,sam@kramercustomroofing.com,https://www.kramercustomroofing.com
"Mr. Roof Of Raleigh, Llc",Raleigh,NC,27603,(800) 467-7663,weylcox@hotmail.com,https://www.ableroof.com
Pisgah Roofing And Restoration,Asheville,NC,28806,(828) 424-7112,jack@pisgahroofing.com,https://www.pisgahroofingandrestorationnc.com
Alamance Discount Roofing And Gutters,Burlington,NC,27215,(336) 639-9735,eddiesappelt@gmail.com,http://alamancediscountroofing.com
Vinyl Exteriors,Greensboro,NC,27407,(336) 852-9807,rgleason@triad.rr.com,http://windowprices.com
Boyesco Inc,Serving theWendell Area,,,(919) 526-7107,justin@boyesco.com,http://boyesco.com
Leafguard Gutters,New Bern,NC,28560,(252) 633-6224,c.hampton1448@gmail.com,https://www.leafguardgutters.com
Home Solutions Roofing,Summerfield,NC,27358,(336) 451-4782,jason@hsncroofing.com,http://www.hsncroofing.com
Carolina Pro Coatings,Grover,NC,28073,(704) 937-0980,carolinaprocoatings@hotmail.com,
Aar Of North Carolina Inc,Kernersville,NC,27284,(336) 993-5359,mike@aarnc.com,
Statewide Roofing,Pinehurst,NC,28374,(910) 215-4875,statewideroofingnc@gmail.com,
The Shingle Master,,,,(919) 373-7663,bryan@theshinglemaster.com,https://www.theshinglemaster.com
All Star Roofing & Construction,Charlotte,NC,28277,(704) 605-0554,jdsmith@allstarroofers.com,https://www.allstarroofers.com
Shingles Roof Direct,Matthews,NC,28104,(704) 320-1896,daniel@shinglesroofdirect.com,https://www.shinglesroofdirect.com
Northwestern Roofing & Construction,Wilkesboro,NC,28697,(336) 667-1633,nwroofers@wilkes.net,https://www.northwestern.edu/fm/projects/current
Hipps Roofing Company,Shelby,NC,28150,(704) 769-0914,keith.hipps@hotmail.com,
Carolina Roofing & Vinyl Siding Llc,Clayton,NC,27520,(919) 553-7663,robert.schmidt@carolinaroofing.co,http://www.carolinaroofing.co
Crossover Roofing,High Point,NC,27263,(336) 804-5058,crossoverroofing@gmail.com,https://crossoverroofing.com
Venture Construction Group,Concord,NC,28027,(980) 225-6889,remodel@venturebuilt.com,https://ventureconstructiongroup.com
Blues Brothers Construction,Fayetteville,NC,28304,(910) 988-8337,tylerblue83@gmail.com,
American Gutter & Roof Cleaning,Charlotte,NC,28205,(704) 563-1995,woodytison@gmail.com,http://www.americangutterclt.com
Southern Style Roofing,Leland,NC,28451,(910) 262-3787,lvmysky@live.com,
"Merritt Roofing, Llc",Fort Mill,SC,29708,(803) 367-6887,cm@merrittroofing.com,https://www.merrittroofing.com
A-1 Seamless Guttering,Weaverville,NC,28787,(828) 645-7707,a1seamlessguttering@gmail.com,
B & B Repairs,Grifton,NC,28530,(252) 717-7212,bradcarraway15@gmail.com,
Everlast Improvements,Raleigh,NC,27606,(984) 289-2585,jb@metalroofnc.com,http://www.everlastimprovements.com
Max Baxter Roofing,Serving theGastonia Area,,,(704) 629-4064,max_baxter@hotmail.com,https://maxbaxter.com
"Carolina Custom Roofing, Llc",Asheboro,NC,27205,(336) 963-2992,carolinacustomroofing4u@gmail.com,https://www.carolinacustomroofing.com
Centimark Inc,High Point,NC,27262,(336) 889-4678,matt.gross@centimark.com,
Combs Roofing Of Waxhaw,Serving theMonroe Area,,,(704) 750-9837,britton@combsroofingofwaxhaw.com,https://combsroofingofwaxhaw.com
Raynor-Bryan Construction,Fayetteville,NC,28311,(910) 751-7997,teamraynor@gmail.com,
A Plus Roofing & Construction,Matthews,NC,28105,(980) 208-4205,aplusroofin@gmail.com,
White Flex Applicators,Charlotte,NC,28217,(980) 236-9418,whiteflex.sunlife@gmail.com,
Nailhead Roofing,Goldsboro,NC,27530,(919) 750-4689,nailheadroofing@gmail.com,
Tim Lewis Renovations And Construction,Creedmoor,NC,27522,(919) 225-7549,timlewis240@gmail.com,
Blue Fox Roofing & Renovations,Charlotte,NC,28277,(704) 992-7750,jay@bluefoxroofing.com,https://www.bluefoxroofing.com
Sealing Agents Waterproofing,Indian Trail,NC,28079,(800) 522-4368,tcampos@sealingagents.com,http://www.sealingagents.com
Feazel Inc,Cary,NC,27513,(984) 377-7663,amandas@feazelinc.com,https://www.feazelinc.com
M Squared Roofing,Chesnee,SC,29323,(864) 680-7407,hoymike23@gmail.com,https://www.msquared.cc
Redeem Roofing & Construction,Burlington,NC,27215,(336) 350-1450,travtatum@gmail.com,https://www.redeemnc.com
Southeast Roofing By Secc,Climax,NC,27233,,ars.roofing.construction@gmail.com,https://www.southeastcommercialroofing.com
Carolina Roofing And Renovation,Charlotte,NC,28227,(704) 891-5789,cr2nlt@gmail.com,http://www.cr-2.com
Right Way Exterior Solutions,Mount Holly,NC,28120,(704) 392-0720,rtway1256@gmail.com,https://rightwayexteriorsolutions.com/contact
"Emr Services, Inc.",High Point,NC,27262,(336) 807-6569,emrservices19@gmail.com,https://www.emrservices19.com
Quality Aluminum,Leicester,NC,28748,(828) 301-1764,marshahargrove68@gmail.com,https://www.qualityaluminum.com
Edwards Roofing And Gutters,Serving theApex Area,,,(919) 623-0505,billroofer66@gmail.com,https://edwardsroofingandgutters.com
"Boggs Building Company, Inc.",Mocksville,NC,27028,(336) 998-4218,gboggs@yadtel.net,
"Major League Construction, Inc.",Greensboro,NC,27406,(336) 256-9236,majorleagueconstructioninc@gmail.com,https://majorleagueconstructioninc.com
Abj Roofing Inc.,Wake Forest,NC,27587,(919) 422-0355,abjroofing@gmail.com,http://abjroofinginc.com
Centimark,Charlotte,NC,28273,(704) 519-4793,kenneth.zmich@centimark.com,https://www.centimark.com
Harbor Roofing & Siding,Serving theWilmington Area,,,(910) 262-5508,harborroofingwilm@gmail.com,https://www.harborroofingandsiding.com
The Allen Consulting Group,Browns Summit,NC,27214,(336) 268-7309,allenconsulting1@gmail.com,
Bryan's Roofing & Siding,Kittrell,NC,27544,(252) 430-1907,bryanemma96@gmail.com,https://www.bryansroofingandsidingnc.com
Mcconstruction,Angier,NC,27501,(919) 796-4384,jcampos001@nc.rr.com,https://www.mcconstructionncllc.com
Bar Roofing & Maintenance,Kernersville,NC,27284,(336) 782-7108,nathanbarrfg@gmail.com,https://barroofingandmaintenance.com
Roof Solutions Inc,Cornelius,NC,28031,(704) 896-0022,csmith@hunterhollis.com,http://roofsolutionsinc.com/
Roof Doctor Inc.,Serving theKinston Area,,,(910) 531-4905,wsessoms72@gmail.com,http://www.roofdoctornc.com
Coastline Construction And Renovations,Cape Carteret,NC,28584,(252) 622-5109,encccr@gmail.com,
"Red Top Roofing & Exteriors, Inc.",Hillsborough,NC,27278,(919) 289-9674,chrisrobinson1758@gmail.com,
"Consumer First Roofing, Llc",Boiling Spgs,SC,29316,(864) 398-1805,consumerfirstroofing@gmail.com,https://consumerfirstroofing.com
Quality Roofing & Home Improvement,Charlotte,NC,28278,(704) 412-9330,qualityroofinghi@gmail.com,https://qualityroofinghi.com
"Custom Renovations, Inc.",Raleigh,NC,27604,(919) 669-5291,customrenovatenc@gmail.com,https://www.customrenovate.com
Global Premium,Fountain,NC,27829,(252) 343-3636,alexis.patterson@nike.com,
"Carolina Building Specialists, Inc",Carolina Beach,NC,28428,(910) 458-8587,cbs.agreer@gmail.com,https://carolinabuildingspecialists.com
Redemption Roofing And Restoration,Fuquay Varina,NC,27526,(919) 812-7282,ami.buildersrr@gmail.com,https://amibuildersnc.com
"Vsv Construction, Inc",Raleigh,NC,27614,(919) 389-2201,victoriamarinsucasa@gmail.com,
Team Craft Roofing,Lincolnton,NC,28092,(888) 766-3371,rufus@tcrfg.com,https://www.pcr.com
Robinson Roofing,Elon,NC,27244,(336) 221-4582,robinsonrepairs47@gmail.com,
Thomas Brothers Pressure Washing,Trent Woods,NC,28562,(252) 671-6635,cmthomas75@hotmail.com,
Superior Roofing Services,Raleigh,NC,27613,(919) 782-3448,roccoa@sup-remodeling.com,https://www.sup-remodeling.com
B&Broofing Llc,Crouse,NC,28033,(704) 860-9836,smithalbert0130@gmail.com,
"Jonas Independent Contracting, Llc",Indian Trail,NC,28079,(704) 956-0221,jonasindependentcontracting@gmail.com,https://www.jonasindependentcontracting.com
C.Williams Home Repair,Lexington,NC,27295,(336) 201-0530,cwilliamshomerepair@live.com,
Behold Roofing,Sanford,NC,27332,(919) 591-4721,beholdhome07@gmail.com,https://beholdroofing.com
Piedmont Roofing Services,Charlotte,NC,28226,(704) 236-3884,piedmontdisasterservicesllc@twc.com,https://urldefense.proofpoint.com/jerror
Premier Builders Roofing Specialists,Fayetteville,NC,28301,(910) 485-3479,robin@pbroofingspecialist.com,https://www.pbroofingspecialist.com
"Charlottetowne Construction, Exteriors & Roofing",Charlotte,NC,28203,(980) 228-9200,charlottetowne1@gmail.com,
Deer Ridge Consulting Inc,Ararat,VA,24053,(336) 429-7922,roger@deer-ridge-consulting.com,http://deer-ridge-consulting.com
Tidd's Roofing,Huntersville,NC,28078,(704) 668-1287,tiddsroofinggroupinc@gmail.com,http://www.tiddsroofing.com
Riley Roofing Company,Burlington,NC,27217,(336) 578-4488,jason@rileyroofing.com,https://www.rileyroofing.com
Seamless Gutter Systems Inc,Efland,NC,27243,(984) 203-2126,seamlessguttersystemsinc@gmail.com,https://www.seamlessguttersystemsinc.com
Incline Construction Inc,Durham,NC,27703,(919) 598-8006,rpope@inclineconstruction.com,https://inclineconstruction.com
Leaf Relief Gutter Cleaning Service,Serving theWinston Salem Area,,,(434) 485-0121,leafreliefgutters@gmail.com,https://www.leafreliefguttercleaning.com
Love's General Contracting,Serving theRocky Mount Area,,,(281) 584-3351,lovesgeneralcontracting27@gmail.com,
Ajt Construction Inc,Raleigh,NC,27613,(919) 848-3159,adam@ajtraleigh.com,https://www.ajtraleigh.com
E. A. Metsger Builder,Connelly Springs,NC,28612,(828) 368-4087,james@eametsgerbuilder.com,https://www.eametsgerbuilder.com
Safe Top Roofing & Remodeling,Douglasville,GA,30135,(770) 374-2736,calvin@safetoproofing.com,https://safetoproofing.com
"Champion Contractors & Services-Commercial, Llc",Chapel Hill,NC,27517,(877) 242-6748,kvogler@championcontractors.com,http://championcontractors.com
"Nc Roof Pros, Llc",Polkton,NC,28135,(704) 385-1558,chris@ncroofpros.com,https://ncroofpros.com
"Truss Buildings, Llc",Cary,NC,27519,(919) 291-6961,john@tbllcnc.com,http://www.tbllcnc.com
Harris Roofing Company,Henderson,NC,27537,(252) 492-1252,davie.harris82@gmail.com,
Pro Metal Roofing,Shelby,NC,28150,(828) 289-0718,prometalroofing@live.com,
"Vp Builders, Llc",Mc Leansville,NC,27301,(336) 617-3278,samanthavpnc@gmail.com,https://vpbuildersnc.com
Ranger & Associates Inc,Serving theAlbemarle Area,,,(704) 984-2441,rangerassoc7@gmail.com,http://rangerassoc.com
"Team Luten Construction, Llc",Huntersville,NC,28078,(704) 965-0522,teamluten@gmail.com,https://www.teamluten.com
Contracting Arsenal Inc,Raleigh,NC,27609,(919) 280-7494,carter@contractingarsenal.com,https://www.contractingarsenal.com
Cabarrus Roofing,Serving theKannapolis Area,,,(704) 795-5961,cabarrusroofing@windstream.net,http://www.cabarrusroofingnc.com
Bodenhamer Roofing Systems,Sophia,NC,27350,(336) 442-6802,rickybodenhamer54@gmail.com,http://bodenhamerroofingsystems.com
Affordable Contracting,Serving theRaleigh Area,,,(919) 809-4916,affordableroof1981@gmail.com,https://www.affordablecontractingnc.com
L&S Custom Exteriors,Serving theElizabeth City Area,,,(252) 722-5518,sharachivers@gmail.com,https://www.lscustomexteriorsllc.com
"New Roof, Llc",Charlotte,NC,28277,(704) 999-6036,newroofclt@gmail.com,https://www.newroofclt.com
Expedited Home Improvements,Gastonia,NC,28053,(704) 658-8538,expeditedhomeimp@ymail.com,
"Thermosave, Inc",Willow Spring,NC,27592,(919) 557-8358,johnny.thermosave@gmail.com,
Gfc Restoration,Fort Mill,SC,29715,(803) 322-2070,gfcrestoration@gmail.com,
"Grieme Roofing Company, Inc.",Aberdeen,NC,28315,(910) 944-9630,pcoats@griemeroofing.com,http://griemeroofing.com
Chemtech Roof & Insulation Systems Inc,High Point,NC,27260,(336) 887-6071,rutledge@chemtechroof.com,https://www.chemtechroof.com
Kennedy Roofing & Exteriors,Wilmington,NC,28401,(910) 859-4510,nick@kennedy-roofing.com,https://www.kennedy-roofing.com
Southeastern Premier Roofing,Raleigh,NC,27610,(205) 427-7135,sepremier1@gmail.com,https://www.sepremierroofing.com
Procon Inc,Randleman,NC,27317,(336) 294-8633,aaron@proconfoundations.com,http://www.proconroofing.com
Terry's Roofing,Conover,NC,28613,(828) 569-6100,terrysroofing6414@gmail.com,
"Hrp Construction, Inc.",Raleigh,NC,27610,(919) 758-3380,hectorrojas90@icloud.com,https://hrpconstructionincnc.com
Pro Pinnacle Contracting,Holly Springs,NC,27540,(919) 451-0313,atheis1@propinnaclecontracting.com,https://www.propinnaclecontractingnc.com
Infinity Roofing & Siding Inc,Charlotte,NC,28210,(704) 553-8600,charliegonzales@infinityroofer.com,https://www.infinityroofer.com
"Northline Roofing, Llc",Matthews,NC,28104,(704) 796-9506,ryan@northlineroofing.com,https://www.northlineroofing.com
"Bardi-Davis Construction, Llc",Garner,NC,27529,(919) 373-8352,melody@bardi-davisconstruction.com,https://www.bardi-davisconstruction.com
Peak Roofing Of Lkn,Sherrills Ford,NC,28673,(704) 856-9502,peakroofingoflkn@gmail.com,
S & S Aluminum & Construction Company Inc,Hickory,NC,28602,(828) 324-0114,steve@ssaluminum.com,https://www.ssaluminum.net
Roof King,Charlotte,NC,28226,(704) 323-6850,advancedroofingcharlotte@gmail.com,https://www.roofkingnc.com
M M & P Home Improvements,Serving theGreenville Area,,,(252) 809-3313,troymodlin@msn.com,
Bond Roofing,Raleigh,NC,27609,(919) 787-7979,jeff@bondroofs.com,https://www.bondroofs.com
"Aaa Siding & Windows, Inc.",Monroe,NC,28110,(704) 385-9641,aaasidingwindows@gmail.com,
C & S Roofing,Albertson,NC,28508,(252) 568-3452,scott@csroofing.com,https://csroofing.com
Scott Construction Company,Goldsboro,NC,27530,(919) 734-5565,scott@scottriggsconstruction.com,http://www.nclbgc.org
Stiles Roofing,Serving theMount Holly Area,,,(704) 842-1874,billy@stilesroof.com,https://stilesroof.com
Cornerstone Additions,Serving theRaleigh Area,,,(919) 995-9663,phillyjohn17@gmail.com,https://cornerstoneadditions.com
Locklear Roofing Inc,Jacksonville,NC,28540,(910) 346-4346,roofing.locklear@hotmail.com,http://www.locklear-roofing.com
Jeff Linta Construction & Roof,Little River,SC,29566,(910) 225-4287,jefflinta@gmail.com,https://jefflintaroofing.com
Jjc Roofing,Louisburg,NC,27549,(919) 497-6799,jjcroofing123@gmail.com,https://www.jjcroofing.com
Fx Remodeling & Exterior,Raleigh,NC,27604,(919) 756-6665,ricokss@outlook.com,https://www.vinylsidingraleighnc.com
Rcv Remodeling,Matthews,NC,28105,(704) 307-7958,ricki9555@gmail.com,
Pelagio Gutters & More,Yadkinville,NC,27055,(336) 463-4488,pelagioguttersandmore@gmail.com,https://www.pelagiogutters.com
Xyz Roofs,Garner,NC,27529,(919) 339-0591,darin@xyzroofs.com,https://www.xyzroofs.com
F2 Construction & Roofing,Charlotte,NC,28210,(980) 260-8418,face@f2construction.com,https://www.f2construction.com
Alpha Omega Roofing,Burlington,NC,27217,(336) 742-4132,alphaomegacoble@gmail.com,https://www.alpha-omega-roofingco.com
Maree Roofing,Serving theGreensboro Area,,,(336) 852-0225,mareeroofing@gmail.com,
"Alternative Roofing Solutions, Inc.",Charlotte,NC,28273,(980) 299-2777,mwhiteside@ars-roofing.com,https://ars-roofing.com
Greg Wc Sheets & Associates,Huntersville,NC,28078,(704) 904-2230,gregwcsheets@icloud.com,http://gwcsa.com
Treadlite Roofing,Raleigh,NC,27601,(919) 415-1436,treadliteroofing@gmail.com,http://www.treadliteroofing.com
Mitchell Randy Roofing,Elon,NC,27244,(336) 584-6661,amitchell36@triad.rr.com,
S&R Roofing,Serving theWilson Area,,,(252) 506-7040,rafaeluriostegui53@gmail.com,https://sandrroof.com
All Star Seamless Gutters,Serving theGarner Area,,,(919) 606-3889,allstarseamlessgutters13@gmail.com,https://www.allstarseamlessguttersllc.com
"Alpha Omega Construction Group, Inc",Indian Trail,NC,28079,(704) 821-6510,betsy@alpha-omegainc.com,https://alpha-omegainc.com/locations
Spencer's Custom Construction,Havelock,NC,28532,(252) 229-1011,spencersforhire@gmail.com,https://spencerscustomconstruction.com
"Lasting Impressions Roofing & Improvements, Llc",Wingate,NC,28174,(704) 251-9409,lastingimpressionsroofing@gmail.com,https://lastingimpressionsroofing.com
A+ Roofing & Construction,Rocky Mount,NC,27801,(252) 567-9696,1aplusroofer@gmail.com,
"Metal Roof Consultants, Inc.",Cary,NC,27511,(919) 349-2118,brad@metalroofconsultants.net,https://metalroofconsultants.net
Suretop Roofing,Burlington,NC,27215,(336) 270-9292,donnieblanchard@gmail.com,http://suretoproofing.com
Flat Top Roofing,Dudley,NC,28333,(919) 731-4038,phyllismarie56@gmail.com,
Briers Roofing & Construction,Matthews,NC,28105,(704) 519-5200,wzbriers@hotmail.com,
"Solid Contracting, Inc.",Leland,NC,28451,(910) 745-0505,nick@solidcontracting.biz,https://solidcontracting.biz
Sky House Company,Banner Elk,NC,28604,(828) 898-3717,jeffpell@skyhousecompany.com,https://www.skyhousecompany.com
Coley Roofing & Construction,Raleigh,NC,27614,(919) 464-1333,coleyroofing@gmail.com,
Eastern Roof Technologies,Mooresville,NC,28115,(704) 663-7521,brian@easternrooftech.com,https://easternrooftech.com
Centimark,Greensboro,NC,27409,(919) 792-6256,jeremy.ghent@centimark.com,https://centimark.com/locations/greensboro-north-carolina
Joe Ray's Roofing,Chapel Hill,NC,27516,(919) 942-3474,joeraysroofing@gmail.com,
Capital City Roofing Supply,Charlotte,NC,28208,(704) 334-2426,johnccrs@gmail.com,
D & S Services Group,Charlotte,NC,28277,(704) 968-1377,dsfinancials@gmail.com,https://porch.com/legacy-web/pro-url/d-s-services-group-llc/pp
All Seasons Roofing,Concord,NC,28025,(704) 784-4757,bweiss@allseasonsroofing.com,http://www.allseasonsroofing.com
Mike Willis Roofing Co,Trinity,NC,27370,(336) 861-6409,mikelewisroofing@gmail.com,
Callahan's Painting,Fort Mill,SC,29715,(803) 548-0085,callahanspainting@gmail.com,http://www.callahanspainting.com
"Sunlife Systems International, Inc.",Charlotte,NC,28217,(704) 527-2480,kbariola@godaddy.com,https://www.godaddy.com:443/forsale/sunlifesystems.com
Home Logic,Louisburg,NC,27549,(919) 710-8420,timnichols320@gmail.com,https://www.homelogicllc.biz
Appalachian Construction,Boone,NC,28607,(828) 386-6336,dw@appconst.com,http://appconst.com
Ray's Roofing Of North Carolina,Mebane,NC,27302,(336) 675-4780,raysroofingnc@gmail.com,http://www.raysroofingofnc.com
King Roofing Consultants,Charlotte,NC,28209,(704) 208-7021,johnking@kingroofingconsultants.com,
Highland Roofing Company,Wilmington,NC,28405,(910) 798-0155,iain@highlandroofingcompany.com,https://www.highlandroofingcompany.com
Carolina Flooring And Roofing,Wilmington,NC,28403,(910) 377-1904,cfrmyroofer@gmail.com,https://www.cfrmyroofer.com
Jr Roofing & Supply Company,China Grove,NC,28023,(704) 213-0416,jrroofingcompany@gmail.com,
Top Roofing And Contracting,Serving theThomasville Area,,,(336) 775-7435,toproofingandcontractingllc@gmail.com,https://toproofingandcontracting.com
A & M Roofing & Home Renovations,Asheboro,NC,27205,(336) 953-0043,amroofinghomerenovations@gmail.com,http://www.amroofinghomerenovations.com
Lawn To Roof Repair Llc,Elizabeth City,NC,27909,(252) 489-3686,lokatthis@hotmail.com,http://l2rr.com
Taylor Construction Of North Carolina,Serving theMonroe Area,,,(704) 960-8394,jt339@live.com,http://taylorconstructionofnc.com
Spain Construction,Charlotte,NC,28273,(704) 554-0041,don@spainconstructioncharlotte.com,https://spainconstruction.com
Precision Construction,Morganton,NC,28655,(828) 514-1630,mmovers44@gmail.com,https://www.google.com/maps/place//data=!4m2!3m1!1s0x8850cf648aa8f3a5:0x1c63361473f15e09
Johnson   Roofing,Wilmington,NC,28409,(910) 392-1565,ryland@rwmasonroofing.com,https://www.rwmasonroofing.com
Briggs Roofing & Construction,Serving theWilson Area,,,(252) 885-6024,tarheelfan64@gmail.com,http://www.briggsroofingnc.com
Carolina Vinyl Windows,Richfield,NC,28137,(704) 239-4647,jeff@carolinavinylwindows.com,http://www.carolinavinylwindows.com
"Bulldog Group, Inc.",Winston-Salem,NC,27101,(336) 724-2727,taylor@bulldoggroupinc.com,https://www.bulldoggroupinc.com
"Roof Maxx Of Charlotte, Nc",Charlotte,NC,28215,(704) 850-8008,rgrissinger@roofmaxx.com,https://roofmaxx.com/find-a-dealer/north-carolina/charlotte
The Bonitz Company Of Carolina Tennessee,Asheville,NC,28801,(828) 575-5720,bruces@bonitzofash.com,https://www.bonitzofash.com
"Pro Roofing Group, Inc.",Trinity,NC,27370,(336) 905-9181,mdills@proroofinggroup.com,http://proroofinggroup.com
Griffin Roofing & Construction,Serving theHuntersville Area,,,(704) 769-0472,jj.andreu@griffinroofs.com,https://griffinroofs.com
Asheville Home Improvement Co. Inc,Asheville,NC,28806,(828) 545-3343,ashevillehomeimprovement@gmail.com,http://www.lowes.com
"American Roofing Company, Llc",Summerville,GA,30747,(423) 381-8816,sandra@roofyou.com,https://www.roofyou.com
Renoir Restoration,Matthews,NC,28104,(704) 522-0339,renoir.restoration@gmail.com,https://www.renoirrestoration.com
Mike's Roof Repair,Lexington,NC,27295,(336) 306-6212,mr.coleslaw31@gmail.com,
Flex Tech Roofing Inc,Charlotte,NC,28226,(704) 544-8811,manish.guda@emids.com,https://www.emids.com/flextech
Vaquera Brothers,Gibsonville,NC,27249,(336) 382-9477,vaquerabrothers@msn.com,
"Sivad Construction, Llc",Garner,NC,27529,(919) 228-9663,sivad.elijah@gmail.com,https://sivadnc.com
Rodriguez Roofing,China Grove,NC,28023,(704) 938-1911,alvarorodriguez1969@gmail.com,https://arodriguezroofing.com
G3 Roofing,Raleigh,NC,27609,(919) 213-6005,tommy@g3roof.com,https://www.g3roof.com
"Mclean Homes, Inc.",Serving theMount Holly Area,,,(704) 913-2788,mcleanhomesinc@gmail.com,http://mcleanhomesinc.com
Dave's Roof Repair,Serving theCary Area,,,(919) 219-2474,davesroofrepair@gmail.com,http://davesroofrepair.com
Bulletroof,Apex,NC,27523,(855) 766-3866,markbarth@bulletroof.com,https://bulletroof.com
John D. Cummings Designers And Constructors,High Point,NC,27265,(336) 987-0202,roofleanc@gmail.com,
"Baird Roofing & Restoration, Llc",Raleigh,NC,27616,(336) 464-7663,h.bairdroofing@gmail.com,https://bairdroofingrestoration.com/cgi-sys/suspendedpage.cgi
Premier Building Solutions Inc.,High Point,NC,27265,(336) 848-0601,seth@premierbuildingsolutionsinc.com,https://www.premierbuildingsolutionsinc.com
Triangle Roofing & Renovations,Durham,NC,27703,(919) 797-0662,mstafford@trianglerr.com,https://www.trianglerr.com
Davco Contracting Inc,Indian Trail,NC,28079,(704) 817-9788,steve.pinkus@royalroofing.com,https://royalroofing.com
Nc Siding & Exteriors,Wake Forest,NC,27587,(919) 946-8256,ncsiding@hotmail.com,https://www.ncsiding.com
Element Control Roofing,Morganton,NC,28655,(828) 409-0130,william@elementcontrolroofing.com,https://elementcontrolroofing.com
"Top Flite Roofing, Llc",Matthews,NC,28104,(704) 776-2024,mm.topfliteroofing@gmail.com,https://www.topfliteroofing.com
Ultimate Masonry,Greenville,NC,27834,(252) 227-9405,eastcoastmasonry2614@gmail.com,
Simon Roofing,Charlotte,NC,28213,(704) 599-0440,stevem@simonroofing.com,https://www.simonroofing.com
"Under 1 Roof Construction Services,Llc",Matthews,NC,28105,(704) 846-0300,under1roofnc@gmail.com,
Gri Sales Supply,Wanchese,NC,27981,(252) 473-4944,outerbanxs@gmail.com,https://www.obxstore.com
Taylor Roofing And Restoration,Matthews,NC,28106,(704) 840-4386,toddtaylorroofing@gmail.com,http://taylorroofingnc.com
Sandoval Roofing,Serving theJacksonville Area,,,(910) 548-1811,sandovalroofing2010@gmail.com,https://sandovalroofingllc.com
Covid 19 Roofers,Raleigh,NC,27603,(855) 937-8423,james@covid19roofers.com,https://covid19roofers.com
E&K Construction,Serving theClayton Area,,,(919) 247-2241,ekconstruction.dk@gmail.com,https://eandkconstruction.net
"Maven Advantage, Inc.",Jacksonville,NC,28540,(850) 293-2316,jt@mavenmg.com,https://www.mavenroof.com
"Level Up Roofing, Inc.",Clemmons,NC,27012,(336) 516-9043,sheila@leveluproofingusa.com,http://leveluproofingusa.com
Roof Repair,Matthews,NC,28104,(704) 821-3189,trudellsroofrepair@hotmail.com,
American Roof-Brite,Mooresville,NC,28115,(704) 562-1278,bharvey_45@hotmail.com,https://aok.org
Charlotteroofing.Com,Charlotte,NC,28217,(704) 451-3648,david@charlotteroofing.com,https://www.charlotteroofing.com
"Weathergard, Inc.",Monroe,NC,28110,(704) 289-6404,weathergard@weathergardnc.com,
Overton's Construction,Serving theWilson Area,,,(252) 589-7101,michael@ovtgroup.com,http://www.overtonsconstruct.com
"Sky Restorations, Llc",Calabash,NC,28467,(844) 240-8136,t.noel@skyrestoration-us.com,https://www.skyrestoration-us.com
"Remodel Raleigh, Inc.",Raleigh,NC,27615,(919) 847-5374,dwmccaffrey@gmail.com,https://remodelraleigh.com
Ace Solar & Roofing Llc,Charlotte,NC,28277,(980) 200-6183,mattstone8711@gmail.com,
Sipe Lumber Company Inc.,Taylorsville,NC,28681,(828) 848-4136,ksipe@sipelumber.com,https://www.sipelumber.com
Covenant Roofing & Construction Inc.,Raleigh,NC,27615,(919) 800-9811,andrewe@covenantroofingusa.com,https://covenantroofingusa.com
Southern Roofing,Charlotte,NC,28226,(704) 363-3317,eric@srroof.com,https://www.srroof.com
T L C Custom Exteriors,Greensboro,NC,27410,(336) 294-0563,traci@tlcexteriors.com,http://www.tlcexteriors.com
Aapco,Concord,NC,28025,(704) 784-2690,showe@aapcogroup.com,http://www.aapcogroup.com
Justice Roofing,Wilmington,NC,28401,(910) 762-9950,roofing@outlook.com,http://justiceroofing.com
American Dream Home Remodeling,Mooresville,NC,28117,(704) 837-0652,adhrphone@gmail.com,http://americandreamhomeremodeling.com
Calvary Roofing,Fayetteville,NC,28314,(910) 494-4022,calvaryroofingusa@gmail.com,https://calvaryroofingusa.com
Leonard Roofing & Construction Company,Lexington,NC,27292,(336) 236-6023,landarealty@lexcominc.net,https://www.leonardroofingandconstruction.com
Builder's Discount Center,Henderson,NC,27537,(252) 430-8500,bdc@triad.rr.com,https://buildersdiscount.net
Aceline Roofing,Raleigh,NC,27624,(919) 389-9571,samaycock@acelineroofing.com,https://acelineroofing.com
"Cooley Roofing & Construction , Llc",Clemmons,NC,27012,(336) 766-6488,troy@cooleyroofing.com,https://www.cooleyroofing.com
All-Dry Roof Repair,Morganton,NC,28655,(828) 292-2813,alldryroof@gmail.com,
"Southern Quality Company, Llc",Brevard,NC,28712,(828) 877-2929,john@southernquality.com,https://www.southernquality.com
Triad Home Improvements,Serving theMount Airy Area,,,(336) 765-8074,triadhomeimp@triad.rr.com,http://www.triadhomeimprovements.net
"D L V Roofing Systems, Inc",Mills River,NC,28759,(828) 654-0212,pete@dlvroofing.com,https://www.dlvroofing.com
Premier Roofing & Construction,Serving theGreensboro Area,,,(336) 430-9507,pcroofing123@gmail.com,
Meridian Construction Group,Harrisburg,NC,28075,(980) 258-9367,meridian.roof@gmail.com,
"Eason Roofing, Llc",York,SC,29745,(803) 222-4505,frank@easonroofing.com,https://www.easonroofing.com
"Gonzalez Contractors, Llc",Stokesdale,NC,27357,(336) 644-6047,hugo@gonzalezcontractorsllc.com,https://www.gonzalezcontractorsllc.com
S & S Home Improvements Llc,Fayetteville,NC,28301,(910) 978-6583,ssimprovements@live.com,http://www.homeimprovementfayetteville.com
"Triad Remodeling, Inc.",High Point,NC,27262,(336) 442-7479,triadremodelinginc@gmail.com,http://www.triadremodelinginc.com
"Colts Tree Service, Construction, And Lawn Care.",Fairview,NC,28730,(828) 551-6560,coltsworld@hotmail.com,
Look Commercial Roofing,Lexington,NC,27292,(336) 476-5665,homes@careyrhoades.com,http://www.lookroofing.com
Lancaster General Construction,Camden,NC,27921,(252) 619-8995,irvinlancaster@mediacombb.net,
Brajar Roofing Solutions,Hickory,NC,28601,(828) 610-8953,brajarcorp@outlook.com,https://brajarroofing.com
Carey Roofing & Construction,Willow Spring,NC,27592,(984) 220-4493,chuck@careyroof.com,https://careyroof.com
Mca Construction,Serving theKannapolis Area,,,(980) 521-7404,yourpersonalcontractor@gmail.com,https://mikeallenconstruction.com
Henley General Contractors,Walkertown,NC,27051,(336) 456-6724,henleygeneralcontractors@gmail.com,
Akr Builders,Kernersville,NC,27284,(336) 345-1865,akrbuildersinc@live.com,https://www.akrbuilders.com
Island Roofing Inc,Wilmington,NC,28405,(910) 763-6457,islandroofinginc@bellsouth.net,http://www.islandroofinginc.com
Applied Roofing Solutions,Reidsville,NC,27320,(336) 394-4607,dmccollum@appliedroofingsolutions.com,https://www.appliedroofingsolutions.com
Triangleâ€™S Trusted Roofing Company,Cary,NC,27511,(919) 770-9089,ryan@mytrustedroofer.com,https://mytrustedroofer.com
Lynn's Restoration Services,Monroe,NC,28112,(704) 242-2473,hwilder1@gmail.com,
Roland D. Lawrence Jr. General Contractor Inc.,Serving theMorehead City Area,,,(252) 725-4200,rolandlawrencejr.gc@gmail.com,http://www.beauforthomecontractor.com
Hernandez Roofing & Vinyl Siding,Serving theRaleigh Area,,,(252) 425-4581,benitoher1011@gmail.com,https://www.hernandezroofingsiding.com
Carolina Renovations,Cary,NC,27518,(919) 357-8929,carolina.renovations.nc@gmail.com,
"V (Five) Star Roofing, Llc",Charlotte,NC,28269,(704) 840-2186,vstarroofingllc@gmail.com,https://vstarroofing.com
Turn 2 Roofing,Hope Mills,NC,28348,(910) 423-5980,ventureforthdesign@icloud.com,http://turn2construction.com
Solid Rock Construction,Hickory,NC,28602,(828) 312-9482,marketingops.src@gmail.com,https://www.srcustombuildersnc.com
Cityscape Roofing,Claremont,NC,28610,(828) 241-4747,jhinnant@cityscaperoofing.com,https://www.cityscaperoofing.com
All-American Roofing Consultants,Serving theFayetteville Area,,,(910) 338-4811,mshaw@82roof.com,https://www.82roof.com
"Roofingpro, Inc.",Greensboro,NC,27409,(336) 841-1222,matt@roofing-pro.com,https://www.roofing-pro.com
"Lake Wylie Hardscapes, Llc",Clover,SC,29710,(704) 641-2337,lakewyliehardscapes@gmail.com,https://www.lakewyliehardscapes.com
Sunny Sky Roofing,Serving theGreensboro Area,,,(980) 432-2109,sunnyskyroofing@gmail.com,https://www.sunnyskyroofing.com
Oscar Cruz,Burlington,NC,27215,(336) 792-8246,cruz12kaira@gmail.com,
Bull City Painting & Roofing,Durham,NC,27704,(919) 453-4141,bullcity@usa.com,https://bullcityconstruction.com
Carolina Roofing,Mount Airy,NC,27030,(336) 786-1260,carolinaroofing34@gmail.com,http://carolina-roofing.com
Senox Corp,Charlotte,NC,28206,(704) 371-5043,lucasscott@senox.com,https://senox.com
First Class Roofing,Archdale,NC,27263,(336) 880-8720,mh@firstclass-roofing.com,http://firstclassroofing.com
Mph Pressure Washing,Serving theHuntersville Area,,,(704) 363-3193,mphpwllc@gmail.com,https://www.mphpressurewashing.com
Triangle Building Company,Garner,NC,27529,(919) 980-5659,joe@trianglebc.com,https://trianglebc.com
Interlude Historic Llc,Greensboro,NC,27410,(336) 987-0202,interludehistoric@gmail.com,https://www.roofleaknc.com
T&N Roofing,Wake Forest,NC,27587,(919) 694-7003,tandnroofing@gmail.com,
"Quality Construction Of Danville, Inc.",Danville,VA,24541,(434) 799-0299,qualityconstructiondanville@comcast.net,https://qualityconstructioninc.com
Gaston Roofing & Siding,Serving theGastonia Area,,,(704) 861-8166,gastonroofing1@gmail.com,https://gastonroofing.com
Blackmon Custom Builders Inc.,Serving theHuntersville Area,,,(704) 281-2301,geromeblackmon@gmail.com,https://blackmoncustombuilders.com
Worrell Contracting,Goldsboro,NC,27530,(919) 288-1405,amworrell@worrellcontracting.com,https://www.worrellcontracting.com
Bright's Construction,Elizabeth City,NC,27909,(252) 330-4014,trinity@elizabethcitychamber.org,http://www.elizabethcitychamber.org
Roof Engineering Inc,Raleigh,NC,27615,(919) 870-6885,dmadonia@reiengineers.com,https://www.reiengineers.com
Cape Fear Remodeling,Fuquay Varina,NC,27526,(919) 753-8639,capefearremodeling@gmail.com,
"Southern Restoration, Inc.",Rock Hill,SC,29730,(803) 909-9344,kyle@srincsc.com,https://www.southernrestorationinc.com
"Renew Home Designs, Inc.",Raleigh,NC,27615,(984) 205-8250,jared@renewhd.com,
Vaughan B E & Son Inc,High Point,NC,27260,(336) 884-8737,j.vaughan@bevaughan.com,https://www.bevaughan.com
"Mrn Contracting Nc, Llc",Raleigh,NC,27616,(919) 480-2700,mrncontractingga@gmail.com,https://www.mrncontracting.com
Edwards Roofing Inc,Serving theElizabeth City Area,,,(252) 287-8207,fixaroof@hotmail.com,
Stroud's Building Supply,Morganton,NC,28655,(828) 413-4201,mikestroud@live.com,https://www.stroudsbuildingsupply.com
All Things Contracting,Serving theJacksonville Area,,,(910) 612-6701,allthingscontracting39@gmail.com,https://www.allthingscontracting.com
Custom Roofing By Mark Bruno,Goldsboro,NC,27534,(919) 751-1842,customroofingbymarkbruno@gmail.com,https://customroofingbymar.wixsite.com/roofer
Liberty Roofworks,Charlotte,NC,28270,(704) 463-8177,jesse@libertyroofworks.com,https://libertyroofworks.com
Brajar Roofing Solutions,Hickory,NC,28601,(828) 217-8061,brajarroofing@gmail.com,https://brajarroofing.com
Facility Consulting Group,Asheboro,NC,27203,(336) 625-0901,cbrown@fcg-usa.com,http://www.fcg-usa.com
Excel Roofing Company,Raleigh,NC,27604,(919) 390-1485,sady@excelroofingnc.com,http://www.excelroofingnc.com/raleigh
Craftsman Roofing & Restoration,Mooresville,NC,28117,(704) 769-1700,terry@craftsmanroofs.com,https://craftsmanroofingrestoration.com
Sandhills Seamless Gutters,Serving theRaleigh Area,,,(910) 684-4587,david@sandhillsgutters.com,https://sandhillsgutters.com
Elite Roof Cleaning,Winston-Salem,NC,27103,(336) 408-5874,chris@winstonroofcleaning.com,https://www.winstonroofcleaning.com
Thoroughbred Builders,Richlands,NC,28574,(910) 382-7960,thoroughbredbuilder@gmail.com,
Weatherguard Roofing & Restoration,Raleigh,NC,27612,(704) 577-9193,scott@wgrestoration.com,http://www.weatherguardrestoration.com
"Ebenezer Roofing, Llc",Charlotte,NC,28205,(704) 449-1355,ebenezerroofing@gmail.com,
Mckinney Randy D,Marion,NC,28752,(828) 652-5796,mckinneyroofing@gmail.com,https://www.mckinneyroofing.com
"Abode Home Group, Inc",Fayetteville,NC,28304,(910) 424-2444,abodehomegroup@gmail.com,http://www.abodehg.com
Seal Tyte Systems,Clemmons,NC,27012,(336) 917-9100,troy@sealtyte.com,http://www.sealtyte.com
"The Ray Company, Inc.",Charlotte,NC,28206,(704) 372-0100,mwilkinson@raycompany.com,https://www.raycompany.com/home_page
Clayton Roofing Contractor,Clayton,NC,27520,(919) 626-3311,ncroofingpros@gmail.com,https://claytonroofingcontractor.com
"Cebco Construction, Inc.",Lillington,NC,27546,(910) 893-3331,jerrycummings@charter.net,
A-1 Tim Williams Roofing,Serving theRaleigh Area,,,(919) 586-1687,a1timwilliamsroofing@gmail.com,
Bonitz Insulation Co,Raleigh,NC,27603,(919) 779-2055,caitieridinger@bonitz.com,https://bonitz.us
Dnc Contracting,Raleigh,NC,27606,(919) 931-4637,dnccontracting1202@gmail.com,http://www.dnccontractingnc.com
American Craftsmen Of Nc,Durham,NC,27705,(919) 683-8555,barry@acnc1.com,https://americancraftsmenofnc.com
Alnew Renovations,Bessemer City,NC,28016,(704) 419-1614,alnewrenovations@att.net,http://www.alnewrenovations.com
J W Roofing And Associates,Gastonia,NC,28052,(704) 460-8138,waldenjamie@gmail.com,
American Roofing And Vinyl Siding,Cary,NC,27513,(919) 359-9101,lynn.ivey@theamericanpro.com,https://www.theamericanpro.com
Eastern Home Repair,Serving theRocky Mount Area,,,(252) 361-4170,easternhomerepair1111@gmail.com,http://easternhomerepair.com
Contractor Wholesale Supply,Rocky Mount,NC,27803,(252) 220-0203,contractorwholesalesupply@gmail.com,https://contractorwholesalesupply.com
Lee Roofing & Construction Co,Serving theGoldsboro Area,,,(919) 440-2252,leeroofingandconstruction@hotmail.com,
Daniel Brothers Inc,Raleigh,NC,27604,(919) 714-8643,bdaniel@danielbrothersinc.com,https://danielbrothersinc.com
Curtis Construction,Greenville,NC,27834,(252) 523-1078,justin@curtiscc.com,https://curtiscc.com
Triad Roofing,Winston-Salem,NC,27105,(336) 767-9087,mickey@triadroofing.com,https://www.triadroofing.com
Coyote Siding & Windows,,,,(919) 365-3696,coyotesidingandwindows@gmail.com,https://www.coyotesidingandwindows.com
Pioneer Exteriors,Raleigh,NC,27603,(984) 255-7624,pioneerexteriors1960@gmail.com,http://www.pioneerexteriors.com
Brother's Siding & Roofing Inc,Greensboro,NC,27405,(336) 275-5665,brothersidingroofing@live.com,http://www.mendozabrothersroofing.com
"Cdc Carolina Roofing , Llc",Raleigh,NC,27603,(919) 832-6273,carolinaconstructionnc@gmail.com,https://carolina-construction.com
Stonewright Home Services,Gastonia,NC,28052,(704) 577-4323,david@stonewright.co,http://www.stonewright.com
Hollingsworth Roofing,Charlotte,NC,28210,(704) 552-5855,ashley@hollingsworthroofing.com,http://www.hollingsworthroofing.com
Magnum Construction Llc,Swansboro,NC,28584,(910) 299-2739,magnumconstruction12@gmail.com,https://www.magnumroofs.com
Hd Construction,Kannapolis,NC,28083,(704) 960-2289,bntzroofing@gmail.com,
"Stormtek Roofing And Restorations, Llc",Durham,NC,27704,(919) 999-2767,bhammond@stormtekroofing.com,http://www.stormtekroofing.com
Burris Roofing Co Inc,Winston Salem,NC,27106,(336) 922-7663,rburris@triad.rr.com,
T Q M Roofing Inc,Statesville,NC,28625,(704) 878-6007,roofingtqm@gmail.com,http://www.tqmroofing.com
Red Castle Renovations,Jacksonville,NC,28546,(910) 939-8641,redcastlerenovations@gmail.com,
Fuentes Brothers Roofing,Boone,NC,28607,(828) 262-0812,gsgn@att.net,
Black Diamond Construction,Harrisburg,NC,28075,(704) 400-5985,jbgreenworks@hotmail.com,http://blackdiamondconstructionnc.com
Black Hawk Builders,Serving theWinston Salem Area,,,(336) 978-5233,lambertcjohn@gmail.com,
D Thomas Roofing Co,Wilmington,NC,28405,(910) 798-8606,dthomasroofing@hotmail.com,https://www.dthomasroofing.com
Done Right Roofing And Protective Coating,Dobson,NC,27017,(704) 954-9474,discountroofing19@gmail.com,
Bailey's Home Repair,Wilson,NC,27893,(252) 245-1464,baileyshomerepair@gmail.com,
David Price Construction,Serving theRaleigh Area,,,(919) 291-5532,david@davidpriceconstruction.com,https://www.davidpriceconstruction.com
The Gutter Guys,Lancaster,SC,29720,(803) 289-7963,gutterguyscorvallis@gmail.com,https://thegutterguys.com
Lifetime Windows & Siding,Goldsboro,NC,27530,(919) 751-9210,lifetimewindowsandsiding@msn.com,https://www.lifetimewindowsandsiding.com
Rical Construction,Serving theRaleigh Area,,,(919) 771-0207,rical@earthlink.net,https://ricalconstruction.com
Rodriguez Roofing,Youngsville,NC,27596,(919) 728-1927,nestor@rodriguez-roofing.com,https://www.rodriguez-roofing.com
All American Construction And Remodeling,Kannapolis,NC,28083,(704) 793-8970,allamericanconstruction52@gmail.com,
Hudgins Roofing Inc,Leicester,NC,28748,(828) 712-8599,darin.hudgins@gmail.com,https://www.hudginsroofing.net
Claremont Property Company,Wilmington,NC,28405,(910) 294-5544,keeley@cpc-tx.com,https://www.cpc-tx.com
Best Choice Roofing,Charlotte,NC,28208,(704) 295-7663,matthew.bcr@gmail.com,https://www.bestchoiceroofing.com
East Carolina Roofing & Coating Inc.,Winterville,NC,28590,(252) 746-6483,batchelorstocks51@gmail.com,https://www.ecroofingandcoating.com
Scro's Roofing Company,Clayton,NC,27520,(919) 461-0937,weroof@scrosroofingcompany.com,https://www.scrosroofingcompany.com
"Arac Roof It Forward, Llc",Durham,NC,27713,(919) 794-7333,cbeaverarac@gmail.com,https://www.roofitforward.com/raleigh-durham
Hilliard Builders Inc,Serving theCary Area,,,(919) 460-7755,hilliardbuildersinc@gmail.com,https://hilliardbuilders.com
Jeff's Roofing,Serving theAsheville Area,,,(828) 683-3472,jeffsroofinginc@gmail.com,https://www.jeffsroofingasheville.com
Ed's Contracting Co,Raleigh,NC,27604,(877) 794-5329,ed@edcontracting.com,http://www.edcontracting.com
"Randy Blake Carpentry, Inc.",Vilas,NC,28692,(828) 297-2069,blakemetalinc@hotmail.com,https://randyblakecarpentry.com
Quality Home Solutions,China Grove,NC,28023,(704) 881-4959,qhs.eric@gmail.com,https://qhsroofing.com
"Ab Roofing & Home Solutions, Llc",Garner,NC,27529,(919) 650-0816,ab@abroofingsolution.com,http://www.abroofingsolution.com
Gallimore Home Improvements,Thomasville,NC,27360,(336) 472-3152,gallimorehomeimprovements@gmail.com,
"Elevate Roofing And Exteriors Charlotte, Nc",Serving theKannapolis Area,,,(704) 774-5225,aaron@roofwithelevate.com,http://elevateexteriors.com
John Sluss Roofing,Yadkinville,NC,27055,(336) 345-6844,johnslussroofing@hotmail.com,http://www.johnslussroofing.com/
Collins Roofing & Gutter Service,Hillsborough,NC,27278,(984) 219-8365,collinsroofingandguttering@gmail.com,https://www.roofingindurhamnc.com
A -D Metal Roofing,Newport,NC,28570,(252) 777-0069,adsmetalroofingcompany@gmail.com,https://admetalroofing.com
Robco Residential Inc,Benson,NC,27504,(919) 894-9904,robco@robcoresidential.com,https://www.robcoroofing.com
Lawn To Roof Repair,Elizabeth City,NC,27909,(252) 335-2698,lawntoroofrepair@gmail.com,http://www.l2rr.com
"Delaney Construction, Llc",Gastonia,NC,28054,(704) 215-5359,jdelaney@carolina.rr.com,
Roofers Supply Of Greenville,Charlotte,NC,28273,(704) 970-4010,mrwingo@rooferssupplyinc.com,http://www.rooferssupplyinc.com
"Emergency Remodeling, Llc",Raleigh,NC,27610,(313) 768-4637,hgtz1979@gmail.com,
Moose Construction,Serving theWake Forest Area,,,(919) 497-2121,mooseconstruction@icloud.com,https://mooseconstructionnc.com
D.A.Y. Construction & Remodeling,Serving theBurlington Area,,,(336) 792-0803,d.a.y.roofing@gmail.com,
Aar Of North Carolina,Kernersville,NC,27284,(336) 727-4534,ed@aarnc.com,https://www.aarnc.com
K & D Roofing,Raleigh,NC,27606,(919) 977-4074,ben@kanddroofingnc.com,https://www.kanddroofingnc.com
Rpk Builders,Fairview,NC,28730,(828) 338-5001,rpkbuilder@gmail.com,https://rpkbuilders.com
Empire Roofing Service,Washington,NC,27889,(252) 975-2216,dakota@empireroofing.com,https://www.empireroofing.com
J.A. Hart Construction & Remodeling,Sanford,NC,27332,(919) 935-2603,jonhart@jahartconstruction.com,
Archdale Roofing & Siding,Serving theWilmington Area,,,(910) 599-2095,archdaleroofing@gmail.com,
Ags Construction Group Llc,Charlotte,NC,28215,(980) 337-8572,ivan@agsconstructiongrp.com,
Radically Renewed,Raleigh,NC,27615,(919) 215-8700,gemradicallyrenewed@gmail.com,
Eco Wright Remodeling,Raleigh,NC,27605,(858) 412-0347,brandon@ecoryt.com,https://ecowrightremodeling.com
Tench Enterprises,Harrisburg,NC,28075,(704) 454-5009,tench417@windstream.net,
Infiniti Exteriors,Serving theLeland Area,,,(910) 660-7663,adam@infinitiexteriors.com,https://infinitiexteriors.com
K & W Home Improvements,Serving theGastonia Area,,,(704) 201-0036,katheryne@netzero.com,
"Sunlife, Inc.",Hickory,NC,28601,(877) 864-2953,sunlife@twave.net,https://sunlifesunrooms.com
Miller Construction,Mount Olive,NC,28365,(919) 273-2669,jamiller89@hotmail.com,http://www.juniorhawkinsconstruction.com
James Bloomberg Roofing & Vinyl Siding,Ernul,NC,28527,(252) 633-2598,jamesbloomberg@gmail.com,
Aguillon Roofing,Erwin,NC,28339,(910) 658-6423,aguillongalindo@gmail.com,https://www.aguillonroofingnc.com
Boxer Roofing,Durham,NC,27705,(919) 730-1735,billy@boxerroofing.com,https://boxerroofing.com
J.P. Weaver,Wilson,NC,27893,(252) 674-1316,rweaver@cocentral.com,http://jpweaverinc.com
Dml Siding & Windows,Clayton,NC,27520,(919) 585-2973,larry27527@gmail.com,https://www.dmlsidingandwindows.com
Under 1 Roof,Mooresville,NC,28117,(704) 896-1700,u1rconstruction@gmail.com,http://www.u1roof.com
Otto's Exteriors,Raleigh,NC,27610,(919) 301-0066,sumppumpguides@gmail.com,http://www.ottoshomeremodeling.com
"United Roofing & Siding, Inc",Durham,NC,27704,(919) 730-5176,united1roofing@gmail.com,http://unitedoneroofing.com
Suggs' Seamless Gutters,Broadway,NC,27505,(919) 258-9167,clocks@charter.net,
"Proform Solutions, Llc",Gastonia,NC,28056,(704) 813-4032,info.proformsolutions@gmail.com,
Pro Builders,Serving theFayetteville Area,,,(910) 868-5889,don.vollmer@bldr.com,https://www.bldr.com/probuild.htm
"Charlotte Roofing Materials Surplus, Llc",Charlotte,NC,28215,(704) 302-1095,charlotteroofingmaterials@gmail.com,https://charlotteroofingmaterialssurplus.com
Perfection Roofing And Leak Repair,Reidsville,NC,27320,(336) 613-9047,perfectionroofingleakrepair@gmail.com,
Raymond Supply Company,Winston Salem,NC,27105,(336) 723-8873,raymondsupply@gmail.com,https://www.raymondsupply.com
"Jamey Lupton Custom Builder, Inc.",Grantsboro,NC,28529,(252) 670-7621,jameyluptoncustombuilder@gmail.com,
The Aluminum Company Of North Carolina,Durham,NC,27704,(919) 620-8500,jmonsein@aluminumcompany.com,https://www.aluminumcompany.com
First Class Roofing,Mooresville,NC,28117,(704) 818-4041,lipebrent@gmail.com,https://firstclassroofingnc.com
Tnt Siding,Robersonville,NC,27871,(252) 217-7311,toddthomas53@gmail.com,
Padgett Guttering Systems,Serving theBrevard Area,,,(828) 243-1411,jonathanppadgett888@gmail.com,http://padgettgutteringsystemsnc.com
Living Roofs Inc,Asheville,NC,28801,(828) 252-4449,eancaya@livingroofsinc.com,https://www.livingroofsinc.com
Tryon Roofing,Trent Woods,NC,28562,(252) 772-3841,tryonroofing@gmail.com,
All American Roofing And Restoration,Statesville,NC,28677,(828) 638-5083,mommy2jcp@gmail.com,https://www.aaroofingandrestoration.com
"Aaa Affordable Home Improvements, Inc.",Charlotte,NC,28273,(704) 996-1843,affordablehomeimprovements@live.com,
Umicore,Raleigh,NC,27604,(919) 874-7156,thomas.leysen@umicore.com,https://www.umicore.com
Cooley Roofing & Construction Llc,Serving theWinston Salem Area,,,(336) 766-6488,cooleyroofing@gmail.com,https://cooleyroofing.com
Rumble Bee Roofing,Indian Trail,NC,28079,(704) 993-8181,mikemcnally@rumblebeeroofing.com,https://rumblebeeroofing.com
A And J Meza Remodeling,Winston Salem,NC,27101,(336) 399-9880,wilfrido0407@gmail.com,
Henley Roofing Systems,Walkertown,NC,27051,(336) 456-6724,henleyroofing@gmail.com,http://www.henleyroofingsystems.com
Miller Roofing & Siding Co,Serving theHickory Area,,,(828) 465-5568,millerroofingco@charter.net,http://www.millerroofingconc.com
State Roofing,Serving theBoone Area,,,(336) 620-9349,stateroofing1@icloud.com,https://www.stateroofing01.com
Xlnt Built,Raleigh,NC,27601,(612) 562-1487,billscott@xlntbuilt.com,https://xlntbuiltnc.com
Raleigh Remodeling Company,Raleigh,NC,27617,(919) 271-3892,dominick@raleighremodelingcompany.com,https://raleighremodelingcompany.com
Solid Builders Inc,Cary,NC,27511,(919) 388-3958,solidbuilders@nc.rr.com,http://www.solidbuildersonline.com
"Lolo Deals, Llc",Charlotte,NC,28269,(704) 458-8968,lolodeals@outlook.com,https://lolodealsroofing.com
Long Construction,Salisbury,NC,28146,(704) 798-5345,longconstructionandroofing@gmail.com,http://ww1.trustworthy-businesses.com
1996,Gastonia,NC,28054,(704) 674-1594,thomasandbud24@gmail.com,
Xterior,High Point,NC,27262,(336) 392-5750,daniellexteriors@gmail.com,https://xteriorllc.com
Dlb Construction,Greensboro,NC,27410,(336) 613-9776,batemandwayne@gmail.com,https://dlbconstructionllc.com
"Aspen Contracting, Inc.",Matthews,NC,28105,(803) 712-7694,lguengerich@roofsbyaspen.com,http://www.roofsbyaspen.com/charlotte
Precise Roofing And Exteriors,Raleigh,NC,27615,(919) 631-1187,rsantos@preciseroofingnc.com,http://www.preciseroofingnc.com
Nicky Overman's Roofing,Elizabeth City,NC,27909,(252) 562-9566,nickyoverman@hotmail.com,https://www.nickyovermanswindowco.com
Walt Haines General Contractor,Midland,NC,28107,(704) 962-9413,whaines@carolina.rr.com,https://www.walthainesgeneralcontractor.com
Raleigh Roof Co,Raleigh,NC,27613,(704) 678-5057,learnfromchris@gmail.com,
"Greeneway Roofing And Restoration, Llc",Charlotte,NC,28269,(704) 806-6774,patrick@greenewayroofing.com,https://www.greenewayroofing.com
Carpenter's Roofing & Painting,Serving theRocky Mount Area,,,(252) 972-5995,jason@carpentersroofing.com,https://carpentersroofing.com
Room 2 Roof Restoration,Charlotte,NC,28202,(704) 549-9393,room2roof@gmail.com,http://www.room2roof.com
Graybrooke Construction & Renovation,Monroe,NC,28112,(704) 256-0123,josh@graybrooke.com,http://www.graybrooke.com
Discount Roofing,Raleigh,NC,27675,(919) 335-3058,discountroofing@hotmail.com,
Papa Gutter Company,Lowell,NC,28098,(704) 824-3533,papagutter@gmail.com,https://www.papagutter.com
Reece Builders & Aluminum Co,Winston Salem,NC,27104,(336) 760-4030,cayla@reecebuilders.com,https://www.reecebuilders.com
Brown's Roofing Company,Rock Hill,SC,29732,(803) 980-7663,topquality@comporium.net,https://brownsroofingcompany.com
E & S Steel,Castle Hayne,NC,28429,(910) 602-7749,ronellis@eandssteel.com,http://eandssteel.com
Custom Home Exteriors,Garner,NC,27529,(833) 832-6243,stephen.scoggins@teamche.com,https://teamche.com
Crs Inc,Monroe,NC,28110,(704) 283-8556,doreenmonroe@sbcglobal.net,http://www.crsrfg.com
All In One Construction,Serving theWinston Salem Area,,,(336) 648-2325,johnventers01@gmail.com,https://allinoneconstructionnc.com
Highland Roofing Company,Wilmington,NC,28405,(910) 798-0155,sbanks@highlandroofingcompany.com,https://www.highlandroofingcompany.com
Sandhills Thermal Imaging,Fayetteville,NC,28314,(910) 835-1306,brad@sandhillsthermalimaging.com,http://www.sandhillsthermalimaging.com
Construction Metal Products,Statesville,NC,28677,(704) 871-8704,mmorton@cmpmetalsystems.com,https://cmpmetalsystems.com
Brother Bear's Home Repairs,Serving theNew Bern Area,,,(252) 649-9768,harlan.mcgillem@gmail.com,
Amc Contracting,Cary,NC,27513,(919) 295-6054,yourfriends@amccontracting.com,https://www.amccontracting.com
Tesh Roofing Company,Winston-Salem,NC,27107,(336) 785-0550,donnietesh@gmail.com,https://teshroofing.com
"Duke Builders, Inc.",Grimesland,NC,27837,(252) 341-7190,dukebuilders@live.com,https://www.dukebuildersinc.com
Champion Services Inc.,Rock Hill,SC,29730,(803) 329-7898,championsales521@gmail.com,https://www.championservicesinc.com
Vincent Barbour & Company,Cary,NC,27511,(919) 601-7299,vincent@vincentbarbour.com,https://vincentbarbour.com
Custom Copper And Zinc,Raleigh,NC,27611,(919) 538-9284,jorge@customcopperroof.com,https://www.customcopperroof.com
P3 - Precision Paint & Pressure Washing,Serving theThomasville Area,,,(336) 671-6016,p3winstonsalem@gmail.com,https://p3ws.com
Drake  Seamless Gutters,Roxboro,NC,27574,(336) 439-0953,geu23@outlook.com,
Roofing Etc,New Bern,NC,28562,(252) 349-1045,cno2882@gmail.com,
Bramble Home Improvements Inc.,Hope Mills,NC,28348,(910) 574-5709,chrisbramble@gmail.com,
Da South Construction & Remodeling,Serving theApex Area,,,(919) 499-7564,davidsoutherland47@gmail.com,https://dasouthconstructionandremodeling.com
Mccalls Construction And Restoration,Eastover,NC,28312,(910) 988-8561,mccallsconstruction@gmail.com,
Above & Beyond Roofing,Raleigh,NC,27603,(919) 432-5631,ric.aboveandbeyondrcs@gmail.com,http://aboveandbeyondroofers.com
S&R Roofing,,,,(252) 506-7040,srroofing@live.com,https://sandrroof.com/
Ace Roofing,Charlotte,NC,28226,(704) 313-8220,nebraska.holdem@gmail.com,https://www.acesolarandroofing.com
Ark Roofing Co,Apex,NC,27539,(919) 303-9000,arkroofing@gmail.com,
Triangle Home Improvements,Raleigh,NC,27606,(919) 924-8545,charlesdavis822@gmail.com,https://trianglehomeimprovementandrenovation.com
Sunshine Roofing & Construction Inc,Rockwell,NC,28138,(704) 279-3456,sunshineroof@sunshineroofingofswfl.com,http://www.sunshineroofingofswfl.com
"Precision Roofing Service, Llc",Fuquay Varina,NC,27526,(919) 219-0315,cwheeler@precisionroofingservice.com,https://precisionroofingservice.com
Mollison Roofing,Raleigh,NC,27609,(919) 374-0190,lance@mollisonroofing.com,
"Kc's Improvement & Construction Company, Inc.",Greensboro,NC,27408,(336) 288-3865,keith@kcsimprovement.com,https://kcsimprovement.com
"Feazel, Inc",Cary,NC,27513,(984) 377-7663,rthomas@feazelinc.com,
Gallop Roofing & Remodeling Inc,Wanchese,NC,27981,(252) 473-2888,rexs@galloproofing.com,https://www.galloproofing.com
Longhorn Roofing Inc,Monroe,NC,28110,(704) 774-1080,luis@longhornroofinginc.com,https://longhornroofinginc.com
Highland Roofing,Greenville,NC,27834,(252) 758-0076,constructionservicesmisty@gmail.com,http://highlandresidentialandcommercialroofing.com
Here4you Restoration,Waxhaw,NC,28173,(704) 802-7741,here4yourestoration@gmail.com,https://www.here4yourestoration.com
"City Of Oaks Home Inspections & General Contracting, Llc",Raleigh,NC,27608,(919) 349-9357,cityofoaks@live.com,https://cityofoaksgeneralcontracting.com
"Stadry Roofing & Restorations - Greenville, Nc",Greenville,NC,27858,(252) 999-6009,stadryroofingnc@gmail.com,https://www.stadryroofingnc.com/greenville-location-.html
B Altman Contractors,Serving theMint Hill Area,,,(704) 606-6360,altmancontractor@bellsouth.net,http://www.altmancontractors.com
Carolina Roofing & Construction Llc,Connelly Springs,NC,28612,(828) 368-2276,leepoarch@carolinaroofingandconstruction.com,https://www.carolinaroofingandconstruction.com
Reliable Roofing & Exteriors,Charlotte,NC,28216,(352) 949-9157,amilton.reliable@gmail.com,https://www.reliableroofingandexteriors.com
Liquid Ceramic Coatings Of The Outer Banks,Kill Devil Hills,NC,27948,(252) 441-8224,matt@beachpainting.com,https://www.beachpainting.com
"Kevin Creech Roofing, Llc",Middlesex,NC,27557,(919) 201-3481,kevincreech41@gmail.com,https://kevincreechroofing.com
Olde South Roof,Concord,NC,28025,(704) 425-8333,seth@oldesouthroof.com,https://oldesouthroof.com
Norato Roofing,Sanford,NC,27330,(919) 776-2121,chuck.j.rice@gmail.com,http://noratoroofinginc.com
Horizon Roofing & Restoration,Charlotte,NC,28208,(980) 275-1085,horizonroofing@mail.com,http://horizonrr.com
Hartsell's Remodeling & Landscaping,Serving theNorth Wilkesboro Area,,,(704) 746-2023,hartsell.remodeling@gmail.com,https://hartsellsremodelingnc.com
Russell's Roofing,Moravian Falls,NC,28654,(336) 921-2164,kip@russellroofing.com,https://www.russellroofing.com
"Ibarra Moon Contractors, Llc",Concord,NC,28027,(704) 490-9015,ibarramooncontractors@gmail.com,https://ibarramooncontractors.com
Mansfield's Roofing,Burlington,NC,27217,(336) 229-5606,roof2u@hotmail.com,http://www.mitchellroofingnc.com
Solar Innovations,Mebane,NC,27302,(919) 304-6111,fschimney@gmail.com,https://firesafechimneysweep.net
Ricardo's Alpha Roofing,Serving theHendersonville Area,,,(828) 214-9126,ricardoalpharoofing@gmail.com,http://ricardosalpharoof.com
C & M Contractors - Affordable Roofing,Timberlake,NC,27583,(919) 399-7000,cmroof@gmail.com,http://cmroof.com
Old School Roofing & Construction,Charlotte,NC,28226,(704) 818-4188,aronwaltersjr@gmail.com,https://oldschoolroofingconstruction.com
Drip Edge Roofing,Charlotte,NC,28273,(980) 287-3816,christopher@dripedgeroofing.com,https://dripedgeroofing.com
Jw Roofing & Exteriors,Serving theJacksonville Area,,,(910) 939-3615,jwexteriorsllc@outlook.com,http://www.jwexteriorsnc.com
Construction Components,Serving theWilmington Area,,,(910) 642-5632,delane@constructioncomponents.com,http://constructioncomponents.com
Gariel Home Improvement,Mount Holly,NC,28120,(704) 822-8868,gabhomeimprove1@aol.com,
Atlas Service And Renovation,Clayton,NC,27527,(919) 632-4492,atlasserviceandrenovation@gmail.com,
Bullet's Contracting,Hendersonville,NC,28793,(828) 329-9195,bulletscontracting@gmail.com,
"704 Renovations, Llc",Cornelius,NC,28031,(704) 604-3366,craig@704renovations.com,http://www.704renovations.com
Fidelity Roofing Inc.,Catawba,NC,28609,(980) 238-2349,jprescott@fidelityroofing.net,https://www.fidelityroofingnc.net
Mr Fix It & The Boss,Shallotte,NC,28470,(910) 754-8428,mrfixitandtheboss@hotmail.com,
Tunstall Builders,Carthage,NC,28327,(910) 949-3386,tbuilders@pinehurst.net,http://tunstallbuildersllc.com
"First Choice Window Door And Deck, Llc",Clayton,NC,27527,(919) 946-2843,russ@firstchoicewindowdooranddeck.com,https://firstchoicewindowdooranddeck.com
Moore's Roofing,Reidsville,NC,27320,(336) 382-6471,mooresroofingreidsville@gmail.com,https://www.mooreroofingnc.com/
Decked Out Of The Triad,Advance,NC,27006,(866) 277-6878,steve@deckedoutofthetriad.com,https://www.deckedoutofthetriad.com
Johnny Taylor Inc.,Warsaw,NC,28398,(910) 590-9584,johnnytaylorinc@gmail.com,https://www.johnnytaylorinc.com
Eric & Son Construction & Roofing,China Grove,NC,28023,(704) 791-2948,moonmonkey9894@gmail.com,
Manus Home Improvement Inc,Winston Salem,NC,27127,(336) 201-2792,cmanus@triad.rr.com,
Clifton Lane Construction Inc,Clayton,NC,27527,(919) 359-8319,brandon@cliftonlaneconstruction.com,https://www.cliftonlaneconstruction.com
Wayne Cooke Roofing Company Inc,Indian Trail,NC,28079,(704) 821-5040,rwaynecookeassoc@windstream.net,
Truline Roofing,Charlotte,NC,28270,(252) 378-4138,mhester@trulineroofing.com,https://www.trulineroofing.com/
"Independent Project Managers, Inc.",Winston-Salem,NC,27101,(336) 403-5907,srobertson@ipmroofsolutions.com,http://www.ipmroofsolutions.com
Gwyn Roofing & Guttering,Sanford,NC,27332,(919) 776-2730,halgwynandme1@gmail.com,
American Heritage Architectural Builders,Zebulon,NC,27597,(919) 349-8235,allansemmont@gmail.com,
Trurelief Roofing Experts,Serving theRaleigh Area,,,(919) 702-5667,james.trurelief@gmail.com,https://trurelief.com
"Nks Contracting, Llc",Erwin,NC,28339,(919) 701-6504,nkscontracting@gmail.com,https://www.nkscontracting.com
May Roofing Co,Mc Leansville,NC,27301,(336) 697-8868,amay38@triad.rr.com,http://www.mayroofingnc.com
Bluejay's Roof & Repair,Pinnacle,NC,27043,(336) 971-3665,bluejaysroofing@gmail.com,
Deklan & Grey Coastal Roofing,Serving theWake Forest Area,,,(252) 573-8671,shaynedavid503@gmail.com,https://deklanandgreycoastal.com
Wade Griffin Roofing,Indian Trail,NC,28079,(704) 821-4740,wadegriffinroofing@windstream.net,https://wadegriffinroofing.com
The Service Pros Inc.,Holly Springs,NC,27540,(919) 441-8063,serviceprosofnc@gmail.com,https://www.ncservicepros.com
"Asc Services & Supply, Inc.",Concord,NC,28027,(704) 784-4917,terry@ascservices.com,https://www.ascservices.com
"Wallace General Contracting, Inc",Rockingham,NC,28380,(910) 206-6248,wallacegcinc@gmail.com,https://www.movingthecarolinas.com/wallacegeneralcontracting
Holt Roofing,Cape Carteret,NC,28584,(252) 393-8875,kcareno@custompools.com,http://custompools.com
"A-Team Exteriors, Llc",Midway Park,NC,28544,(910) 353-5893,a.team.exteriors.llc@gmail.com,https://www.ateamexteriorsllc.com
Galaxy Construction,Serving theGastonia Area,,,(704) 271-9900,oserna1@galaxyconstruction.us,https://galaxyconstruction.us
Elevate Roofing And Exteriors,Liberty,NC,27298,(336) 792-1611,chris@roofwithelevate.com,https://www.elevateexteriors.com
Roof Central,Clayton,NC,27527,(919) 808-5111,justin@roofcentral.com,https://www.roofcentral.com
Agape Roofing,Raleigh,NC,27606,(919) 670-9106,donnyehz@hotmail.com,https://www.agaperoofingllc.com
Commercial Solutions Inc,Greensboro,NC,27101,(336) 659-0082,scottclayton@nc.rr.com,https://www.macsolutionstriad.com
"Phoenix Roofing, Llc",Elon,NC,27244,(336) 314-8767,isiah@phoenixroofing.com,https://phoenixroofing.com
"The Roofer Direct, Llc",Raleigh,NC,27601,(919) 356-8383,therooferdirect@gmail.com,https://www.therooferdirect.com
Ad Metal Roofing.,New Bern,NC,28562,(252) 725-5797,adolfo@admetalroofingnc.com,https://admetalroofingnewbern.com
Steele Restoration,Charlotte,NC,28226,(704) 577-9334,steelerestoration@gmail.com,https://www.steelerestoration.com
Centimark,Garner,NC,27529,(919) 792-6256,russ.toms@centimark.com,http://www.centimark.com
First Choice Roofing And Construction,Serving theCharlotte Area,,,(704) 560-8027,firstchoiceroof@hotmail.com,https://www.firstchoiceroofnc.com
Renovations Specialist,Weaverville,NC,28787,(828) 747-3862,dstone@renovations-specialists.com,http://renovationcustomhome.com
Tartan Builders Group,Charlotte,NC,28209,(704) 201-2321,greg@tartanbuildersgroup.com,https://www.tartan-builders.com
Roof Leak Solutions,Serving theWinston Salem Area,,,(336) 909-2736,roofingdel69@gmail.com,
Best Distributing,Charlotte,NC,28269,(704) 596-8866,dcook@bestdist.com,https://www.becn.com/welcome-to-beacon
America's Best Choice Windows & More,Pinetops,NC,27864,(252) 702-3395,mcalkins@abcwin.com,https://abcwinatlanta.com
Colby's Home Repairs,Winston Salem,NC,27107,(336) 486-9592,colbyshomerepairs@gmail.com,https://www.colbymortonshomerepair.com
Greyhouse Inc.,Raleigh,NC,27603,(919) 834-7991,chris@greyhouseinc.com,https://www.greyhouseinc.com
Hammond Construction Services,Selma,NC,27576,(919) 880-0067,ch@hammondservicesnc.com,
Helpful Handyman,Candler,NC,28715,(828) 665-9470,orane@helpfulhandyman.net,https://helpfulhandyman.net
"Nc Home Exteriors, Llc",Raleigh,NC,27612,(919) 271-0220,swilson@nchomesllc.com,https://nchomeexteriors.com
Go Water Proofing,Asheville,NC,28806,(828) 925-9004,gowaterproof@gmail.com,https://gowaterproofing.com
All-U-Need Masonry Contractors,Greenville,NC,27858,(252) 321-2082,101masonry@gmail.com,
"A.C. Lee Construction, Llc",Four Oaks,NC,27524,(919) 795-9813,ashley@acleeconstruction.com,https://www.acleeconstruction.com
C Velasquez Roofing,Brunswick County,NC,28462,(910) 269-6844,velasquez70230@gmail.com,https://www.cvelasquezroofing.com
Liberty Restoration,Garner,NC,27529,(919) 899-7663,morgan.homestar@gmail.com,https://libertyrestorationgroup.com
Ray Bullock Roofing,Cary,NC,27511,(919) 415-4240,raybullockroofing@gmail.com,http://www.raybullockroofing.com
Jps-Wnc Llc (Jp Solutions Of Western North Carolina),Brevard,NC,28712,(828) 577-8651,4jproof@gmail.com,https://jp4roofing.com
Scott's Seamless Gutter,New Bern,NC,28562,(252) 772-1130,gbscottgutter@gmail.com,https://www.scottsseamlessgutters.com
Four Seasons Roofing & Restoration,Apex,NC,27539,(919) 618-2196,dennis@fourseasonsroofingandrestoration.com,https://www.fourseasonsroofingandrestoration.com
Peterson Construction,Castle Hayne,NC,28429,(910) 602-6172,terrypeterson.construction@gmail.com,
Ars Extreme Construction Inc,Angier,NC,27501,(919) 331-8024,sherry.harvey@arsextreme.com,http://www.arsextreme.com
Best Distributing Co,Charlotte,NC,28273,(704) 378-9991,tcasey@bestdistributing.com,https://www.becn.com/welcome-to-beacon
Salisbury Roofing,,,,(704) 387-6123,roofingsalisburync@gmail.com,https://www.roofingsalisburync.com
"Lumber Remodeling Solution, Llc",Monroe,NC,28110,(980) 328-2612,hc@lumberremodelingsolutionllc.com,https://lumberremodelingsolutionllc.com
Thurston Roof,Raleigh,NC,27610,(919) 749-4411,randy@thurstonroof.com,https://thurstonroof.com
Lam Construction Roofing,Manteo,NC,27954,(252) 207-1227,lamroofing5@gmail.com,https://www.lamconstructionandroofing.com
Soundside Roofing And Home Repair,Elizabeth City,NC,27909,(252) 267-5341,joshferrell845@gmail.com,
The Ray Company Inc,Charlotte,NC,28208,(704) 372-0100,wwilkinson@raycompany.com,https://www.raycompany.com/home_page
Superior Construction & Remodeling,Concord,NC,28025,(704) 699-0758,bigdwight@carolina.rr.com,http://www.superiorremodelingllc.com
Razon Contracting,Angier,NC,27501,(919) 335-5549,razoncontracting@gmail.com,https://razoncontracting.com
Hawk Construction Inc,Indian Trail,NC,28079,(704) 320-0061,hawkconstructioninc@gmail.com,https://hawkconstructionusa.com
Hydroclean,Serving theLenoir Area,,,(828) 499-1318,hydroclean@outlook.com,http://www.dexknows.com/rd
Bk Seamless Gutters Llc,Raleigh,NC,27610,(919) 268-2462,bking4410@gmail.com,https://www.bkroofingandgutters.com
B&M Custom Builders,North Wilkesboro,NC,28659,(336) 572-1369,brandonpresnell1@gmail.com,
Auxiliary Roofing & Restoration,Carrboro,NC,27510,(540) 270-2971,auxiliaryroofing@gmail.com,
"Dave's Construction Of Nc, Inc.",Durham,NC,27704,(919) 201-7972,davesconstruction919@gmail.com,
Nelson's Home Improvements,Ayden,NC,28513,(252) 558-0989,nelsonsroofing93@gmail.com,
Lamar Homes,Raleigh,NC,27606,(919) 827-7178,lamartiniere@lamarhomes.net,https://www.lamarhomes.net
Piedmont Metal Roofing,Serving theHickory Area,,,(828) 392-0060,markwells75metal@hotmail.com,https://www.piedmontmetalroofingnc.com
Fayetteville Roof Pros,Fayetteville,NC,28301,(919) 775-1164,kennethgarrettowner@gmail.com,https://www.fayettevilleroofpros.com
"Total Roofing Solutions, Llc",Charlotte,NC,28210,(704) 751-7566,earl@totalroofingsolution.com,http://www.yourtotalroofingsolutions.com/cgi-sys/suspendedpage.cgi
"Albemarle Roofing, Siding & Windows, Llc",Hertford,NC,27944,(252) 455-7896,stevegray1313@gmail.com,
Colley Home Renovations & Roofing,Serving theJacksonville Area,,,(937) 935-3972,justinlcolley89@gmail.com,https://www.colleyhomerenovationsandroofingnc.com
Home Improvements Of The Carolinas,Greensboro,NC,27405,(336) 271-3323,jeff@improving-homes.com,https://www.triplett-companies.com
Kirios Roofing & Painting Inc,Greensboro,NC,27407,(336) 855-1415,ramiro_gomez@live.com,
Preferred Roofing Company,Havelock,NC,28532,(252) 725-3476,bobcha1801@gmail.com,
Vpc Builders,Banner Elk,NC,28604,(828) 295-0707,vpcbuilders@gmail.com,https://www.vpcbuilders.com
Santoscapes,Durham,NC,27704,(919) 491-7405,santos.painting@outlook.com,
Burns & Scalo Roofing Company,Garner,NC,27529,(919) 662-1622,leibfriedg@burns-scalo.com,https://www.burns-scalo.com
"Ridge Roofing, Llc",Mills River,NC,28759,(828) 412-7663,amy.pedersen@ridge-roofing.com,https://www.ridge-roofing.com
"Roofwerks, Inc.",Raleigh,NC,27607,(919) 852-2660,brigitte@roofwerks.com,https://roofwerks.com
Master Shield Gutter Protection,Indian Trail,NC,28079,(201) 882-8439,questions@mastershield.com,https://mastershield.com
Acc Inc,Blounts Creek,NC,27814,(252) 946-9171,legalresources@acc.com,https://www.acc.com
Henson Building Materials,Linville,NC,28646,(828) 733-2476,dhoneycutt@hensonbuildingmaterials.com,https://www.hensonbuildingmaterials.com
Spider Monkey Roofing,Leland,NC,28451,(910) 431-7580,spidermonkeyroofing@gmail.com,
Jon's Seamless Gutters,Greenville,NC,27833,(252) 917-2426,amundsoninc@outlook.com,
Drw Renovations & Custom Woodworking,Wilmington,NC,28412,(910) 471-9367,drwreno99@gmail.com,https://drwrenovationscc.com
Best Distributing Co,Monroe,NC,28110,(704) 226-9142,monroe@bestdistributing.com,https://www.becn.com/welcome-to-beacon
Dave Powers Roofing Group Llc,Lexington,NC,27292,(336) 908-4153,p5roofinggroup@gmail.com,
American Renovations Professionals Llc,,,,(919) 610-9129,storey356@gmail.com,https://american-renovations-1.com/
Creative Renovations,Cary,NC,27513,(919) 481-4544,tim@creren.com,https://www.creativerenovationsnc.com
Elegant Remodeling,Raleigh,NC,27606,(919) 796-9020,elegantremodeling33@gmail.com,
"Leonine Building Solutions, Llc",Durham,NC,27704,(919) 407-3652,tcooke@leoninebuildingsolutions.com,https://leoninebuildingsolutions.com
"Jlb Remodeling & Custom Homes, Inc.",Serving theHigh Point Area,,,(336) 645-6687,jlbremodeling@hotmail.com,http://jlbremodeling.com
Carolina's Painting & Carpentry Inc.,Charlotte,NC,28278,(704) 622-4599,luisgm4599@hotmail.com,http://www.carolinaspaint.com
Clt Gutterglove,Charlotte,NC,28216,(704) 779-2260,carl@cltgutterglove.com,https://www.cltgutterglove.com
Streetscape Builders,Serving theDurham Area,,,(919) 308-7538,dean@streetscapebuilders.com,https://www.streetscapebuilders.com
Td Williams,Clayton,NC,27520,(919) 553-0899,tdwilliams@nc.rr.com,
Gutter Guys,Lowell,NC,28098,(704) 879-4384,vicki@gutterguysconstruction.com,https://www.gutterguysconstruction.com
"Benton Roofing, Inc.",East Flat Rock,NC,28726,(828) 693-3362,davidm@bentonroofing.com,https://bentonroofing.com
"Mathis Home Improvements, Inc.",Winston Salem,NC,27105,(336) 744-1141,john@mathishomeimprovements.com,https://mathishomeimprovements.com
Roofstruction,Wake Forest,NC,27587,(800) 577-2916,logan@roofstruction.com,https://roofstruction.com
E.P. & Assoc. Roofing & Home Improvement,Serving theForest City Area,,,(828) 223-0201,easypenny@gmail.com,
Weeks Construction Co,Salisbury,NC,28144,(704) 633-5846,shannon@weeksconstruction.com,http://www.weeksconstruction.com
Five Star Roofing & Construction,Sanford,NC,27330,(919) 895-1203,fivestarroofingconstruction68@gmail.com,
Gonzalez Roofing & Construction,,,,(336) 380-8121,dagoo17@gmail.com,http://grcroofz.com/
A.D.S. Roofing And Siding,,,,(252) 232-4944,adsroofingandsiding@gmail.com,https://www.adsroofingandsiding.com
Your Local Roofing Company,Charlotte,NC,28262,(704) 441-0413,your1localroofingcompany@gmail.com,https://yourlocalroofingcompany.com
Af Roofing Solutions,Greensboro,NC,27408,(336) 823-0437,afroofingsolutions@gmail.com,http://www.afroofingsolutions.com
1St Class Finish,Trent Woods,NC,28562,(574) 386-8675,1stclassfinishmudman1st@gmail.com,https://1st-class-finish.business.site
"Js Myers Company, Inc.",Yadkinville,NC,27055,(336) 463-5572,myersinc@yadtel.net,
Leak Solutions Roofing An Gutters,Gibsonville,NC,27249,(336) 212-5912,tsappelt18@gmail.com,http://www.rooferlife.com
Time To Roof,,,,(704) 342-4759,arnaldoparada@carolina.rr.com,https://www.timetoroofinc.com
Dl Home Improvements & Maintenance,Fayetteville,NC,28304,(910) 302-9052,dlhmimp@gmail.com,
Berg Roofing Inc,Pittsboro,NC,27312,(919) 260-0524,bergroofinginc@hotmail.com,https://thorneroofing.com
Alpha & Omega Roofing Company,Burlington,NC,27215,(336) 226-1555,alphaomegacompanies@gmail.com,https://www.alpha-omega-roofingco.com
Abc Roofing & Exteriors,Greensboro,NC,27409,(336) 286-0462,eflury@abcroofinginc.com,https://www.abcroofinginc.com
"S & M Seamless Gutters, Inc",Serving theRaleigh Area,,,(919) 809-8809,smseamlessgutters@gmail.com,
Ace Roofing Contractors,New Bern,NC,28562,(252) 626-1155,aceroofingcontractor@gmail.com,https://www.aceroofingnewbern.com
Rose Roofing,Serving theCharlotte Area,,,(704) 312-7488,roseroofer1@gmail.com,https://roseroofingcharlottenc.com
Mastercraft Roofing Group Inc,Thomasville,NC,27360,(336) 474-7474,mastercraftroofinginc@gmail.com,https://www.mastercraftroofinggroup.com
Home Improvement Specialists And Associates Llc,Winston Salem,NC,27103,(336) 416-0218,hisandassocllc@gmail.com,http://hisandassociatesllc.com
Mba Roofing Of Mooresville,Mooresville,NC,28117,(704) 230-4431,branteagle@mbaroofing.com,https://mbaroofing.com/mooresville-nc
Kirby Roofing Llc,Asheboro,NC,27205,(336) 629-0372,billakirby@gmail.com,https://kirby-roofing-llc.business.site
Residential & Commercial Solutions,Jacksonville,NC,28546,(910) 219-3080,assistance@selectccs.com,
Carolina Custom Roofing,Asheboro,NC,27205,(336) 963-2992,lana.carolinacustomroofing@gmail.com,
H & H Siding And Windows,Serving theRocky Mount Area,,,(910) 298-5062,hhsidingwindows@gmail.com,
Expedited Roofing Repair,Gastonia,NC,28053,(704) 913-5999,expeditedroofing@gmail.com,
Ericks Painting,Hendersonville,NC,28792,(828) 551-8360,ez337393@gmail.com,https://go.thryv.com/site/ulxix18qw2mtoylv/livesite
Alpine Roofing,Durham,NC,27704,(919) 215-7375,nathan@dadodesignbuild.com,https://alpineroofing.us
"Roof And Restoration Experts, Llc",Fort Mill,SC,29708,(803) 992-0655,rob@randrexperts.com,https://roofandrestorationexperts.com
The Roofing Group,Winston-Salem,NC,27104,(336) 240-6834,sean.c@theroofinggroup.com,https://www.theroofinggroup.com
Lkn Roofing,Mooresville,NC,28115,(704) 997-6062,lknroofing@gmail.com,http://www.lknroof.com
Sure Foot Builders Inc.,Asheville,NC,28806,(828) 242-0925,raymond@surefootbuilders.com,https://www.surefootbuilders.com
Total Construction By Dale Lands,Clayton,NC,27520,(919) 625-7115,dale@totalconstructionnc.com,https://totalconstructionnc.com
"B&D Roofing Solutions, Llc",High Point,NC,27265,(336) 899-1985,bill.frey@bndroofing.net,https://bndroofing.net
Philco Roofing & Remodeling,Troutman,NC,28166,(352) 263-1808,philcoroofing@gmail.com,https://philcoroofingcompany.com
C L Lupton Roofing,Greenville,NC,27834,(252) 752-6116,clluptonroofing@gmail.com,
Hodges Roofing And Construction,Winston-Salem,NC,27103,(336) 391-2799,hodgesrandc@gmail.com,https://hodgesroofs.com
"Deboy Construction And Remodeling, Inc.",Kill Devil Hills,NC,27948,(252) 480-9921,outerbankscontractor@gmail.com,https://www.outerbankscontractor.com
T & A Expert Contractors,Cary,NC,27511,(919) 222-4415,taexpertcontractors@outlook.com,https://taexpertcontractors.com
"The Roof Crew, Llc",Gastonia,NC,28052,(704) 349-1529,theroofcrew.net@gmail.com,
Jason's Roofing,Asheville,NC,28804,(828) 782-8952,jasonsroofing76@gmail.com,
Covenant Home Improvement,Raleigh,NC,27617,(919) 744-8500,covenanthomeimprovement@gmail.com,
Honest Abe Roofing Charlotte,,,,(980) 243-0553,justin@honestaberoofing.com,https://www.honestaberoofing.com/charlotte/?utm_source=GMB&utm_medium=organic&utm_campaign=Charlotte
Bci Metal Roofing,Bladenboro,NC,28320,(910) 799-4245,mb61215@gmail.com,http://www.bcimetalroofing.com
Home Choice,Fuquay Varina,NC,27526,(919) 441-3773,homechoiceexteriors@gmail.com,https://www.homechoiceexteriors.com
Baker Roofing Company,Charlotte,NC,28217,(704) 587-3737,dhensley@bakerroofing.com,https://bakerroofing.com/virginia-beach-roofing-company
"Fraser Roofing, Llc",Lilburn,GA,30047,(770) 800-7663,connie@fraserroofingllc.com,https://www.fraserroofingllc.com
Puma Commercial Roofing Llc,Arden,NC,28704,(828) 275-3676,daryle@pumacommercialroofing.com,
Randy's Roofing & Repair,Nashville,NC,27856,(252) 813-2934,randycoley7@gmail.com,
"Preferred Roofing, Inc.",Winston Salem,NC,27105,(336) 767-0500,markpreferred@gmail.com,http://www.preferredroofinginc.net
"The Northgate Group, Llc",Raleigh,NC,27603,(919) 835-2769,eric@thenorthgategroup.com,https://www.thenorthgategroup.com
The Northgate Group,Raleigh,NC,27603,(919) 835-2769,joe@thenorthgategroup.com,https://www.thenorthgategroup.com
Greene's Home Repairs,York,SC,29745,(803) 448-3705,brandongreene48@gmail.com,
Statewide Roofing Conslnt Inc,Charlotte,NC,28273,(704) 222-6578,statewideroofingusa@gmail.com,https://www.statewideroofingusa.com
Unlimited Installations Inc,East Bend,NC,27018,(336) 699-2942,unlimitedinstallations@live.com,http://unlimitedinstallationsinc.com
Love Home Improvements,Mount Holly,NC,28120,(704) 827-3265,lovhomimp@aol.com,http://www.loveroofing.com
"Aspen Contracting, Inc.",,,,(919) 344-0006,gquinn@roofsbyaspen.com,http://www.roofsbyaspen.com/raleigh/
Mdp Custom Homes,Concord,NC,28025,(704) 309-6622,mark@mdpcustomhomes.com,https://www.mdpcustomhomes.com
Dg Construction,Spartanburg,SC,29303,(864) 801-1180,aprilgibson@dgconstruction1.com,https://dgconstruction1.com
Liberty Construction,Apex,NC,27502,(919) 367-3186,libertyconstruction12@gmail.com,
Superior Roofing,Granite Falls,NC,28630,(828) 212-3451,mattwinebarger@gmail.com,https://superiorroofinggroup.com
Outback Buildings,Rock Hill,SC,29730,(803) 327-0431,sandy@outbackbuildingsc.com,http://www.outbackbuildingsc.com
Sevilla Roofing Services,Wilmington,NC,28403,(910) 777-8372,juannunes.sevilla@gmail.com,https://www.gaf.com/en-us
"Handy Helpers, Inc.",Cary,NC,27519,(252) 758-0897,handyhelpersremodel@gmail.com,https://www.handyhelpersremodel.com
Roofing By Joe,Hendersonville,NC,28739,(828) 685-2463,lori@roofingbyjoe.com,http://www.roofingbyjoe.com
International Roofing,Greensboro,NC,27407,(336) 337-3292,samuelpatricio71@gmail.com,
Lifetime Roofing,Wake Forest,NC,27587,(919) 792-8572,robbailes@lifetimeroofingandexteriors.com,https://www.lifetimeroofingandexteriors.com
Elite Construction,Washington,NC,27889,(252) 402-8487,eliteconstructionnc@gmail.com,
"Seven Lakes Contracting & Asphalt Services, Llc",West End,NC,27376,(910) 673-1318,sherry@slcontractingllc.com,http://slcontractingllc.com
"Cornerstone Construction Team, Llc",Charlotte,NC,28203,(704) 476-1743,go@ccteam.org,https://cornerstoneconstruction.org
The Arbor Construction Group,Charlotte,NC,28217,(704) 542-5833,brian.macuga@arborcg.com,https://arborc.com
"Consolidated Roofing Systems, Inc.",Cary,NC,27511,(919) 377-2644,van@crstoroof.com,http://www.consolidatedroofing.org
2Nd Chance Roofing & Construction,Rockingham,NC,28379,(828) 399-1161,dustincoke13@gmail.com,
Maap Building And Exteriors,,,,(980) 425-8157,mgarcia@maapbe.com,https://maapbe.com
"Herring Residential, Llc",Coats,NC,27521,(910) 292-2566,eric@herringresidential.com,https://www.herringresidential.com
"Southern Style Roofing, Inc.",Wilmington,NC,28412,(910) 399-3204,southernstyleroofinginc@gmail.com,
"Robert Paul Contracting, Inc.",Raleigh,NC,27609,(919) 440-1477,bob@robertpaulcontracting.com,https://robertpaulcontracting.com
Sears Home Improvement,Hickory,NC,28602,(828) 326-6300,lawrence.humphries@searshomepro.com,https://www.searshomeservices.com/improve/heating-cooling-systems
"Hamlin Roofing Company, Inc.",Garner,NC,27529,(919) 772-8780,jbdavis@hamlincos.com,https://www.hamlincos.com
Morris Improvements,Jamestown,NC,27282,(336) 259-3745,morrisimprovements@gmail.com,
"Mjnb Contracting, Inc.",Jacksonville,NC,28546,(910) 381-1681,mjnbcontract@hotmail.com,
All About Roofing Co.,Burlington,NC,27217,(336) 265-5858,jeremy@allaboutroofing.net,https://www.allaboutroofing.net
Advanced Roof Clean,North Wilkesboro,NC,28659,(336) 667-2601,randy@advancedroofclean.com,https://advancedroofclean.com
Carolina Seamless Gutters & Roofing,Serving theIndian Trail Area,,,(704) 542-3507,kevin.csg1@gmail.com,
Sc Garrett And Company,Raleigh,NC,27609,(919) 803-1627,stan@scgarrettcompany.com,
Retroimpro,Charlotte,NC,28228,(704) 964-5038,retroimpro704@gmail.com,
Wills Roofing & Home Repair,Wilson,NC,27896,(252) 908-3115,jwillshomeimprovement@gmail.com,
Truguard,Matthews,NC,28105,(704) 544-0455,christianmoon@truguardconstruction.com,https://www.truguardconstruction.com
"Ridge Valley Exteriors, Inc.",Raleigh,NC,27609,(844) 741-7663,adamr@ridgevalleyexteriors.com,https://www.ridgevalleyexteriors.com
Wimmer Siding & Windows,High Point,NC,27265,(336) 731-6875,wimmernc@gmail.com,https://www.wimmernc.com
R Flores Roofing,Greensboro,NC,27405,(336) 691-8183,karina@rfloresroofing.com,https://www.rfloresroofing.com
"Tadco, Inc.",Serving theThomasville Area,,,(336) 403-9637,tadcoinc@gmail.com,http://tadcoinc.com
Morrison Brothers Building Center,Concord,NC,28025,(704) 792-2222,kevans@morrisonbrothers.net,https://www.morrisonbrothers.net
Leafguard Gutter Systems,Raleigh,NC,27604,(919) 832-2253,dscherer@leafguardsoutheast.com,https://leafguardsoutheast.com
Alair Homes Lenoir,Lenoir,NC,28645,(828) 292-0615,adam.mccaa@alairhomes.com,https://www.alairhomes.com/hickory
Suretop Roofing,Cary,NC,27518,(919) 404-9292,donnie@suretoproofing.com,http://suretoproofing.com
Abc Roofing Inc,Greensboro,NC,27409,(336) 286-0462,jquinn@abcroofinginc.com,https://www.abcroofinginc.com
Travis Vanscoy Roofing Repair Specialist,Rocky Mount,NC,27803,(252) 915-4325,travis.vanscoy@gmail.com,
Odell Building & Remodeling,Raleigh,NC,27615,(919) 650-9224,odellbuildingandremodeling@gmail.com,https://www.obrnc.com
Bobby's Quality Roofing,Sanford,NC,27332,(910) 849-4019,bobbysqualityroofs@gmail.com,
"New Chapter Homes, Llc",Jacksonville,NC,28540,(910) 386-7162,tyler@newchapterhomes.biz,https://newchapterhomes.biz
Jm Siding & Roofing,Matthews,NC,28104,(704) 363-1465,jmsiding@hotmail.com,
Piedmont Home Services,Winston Salem,NC,27106,(336) 542-3180,richard.mattera@piedmonthomeservices.com,https://piedmonthomeservices.com
"Triad Roofing Company, Inc.",Winston Salem,NC,27105,(336) 767-9087,joey@triadroofing.com,https://www.triadroofing.com
Old School Renovations Inc,Serving theGarner Area,,,(919) 868-6432,donspivey1@gmail.com,
Keeping You Covered Roofing & Repair,Thomasville,NC,27360,(336) 848-0515,roofingneeds101@gmail.com,https://nckeepingyoucovered.wixsite.com/keepingyoucovered
Atd Restoration,Fayetteville,NC,28301,(910) 218-2251,aseymour@atdrestoration.com,https://www.atdrestoration.com
"Sammy Waugh Roofing, Inc.",Statesville,NC,28677,(704) 528-5506,roofersam@att.net,http://www.bbb.org/northwestern-north-carolina/business-reviews/roofing-contractors/sammy-waugh-roofing-inc-in-statesville-nc-7001329
"Trinity Home Construction Services, Llc",Iron Station,NC,28080,(980) 722-2728,paul@trinityhomeconstruction.com,https://www.trinityhomeconstruction.com
American Roofing& Home Improvements,Raleigh,NC,27609,(919) 607-0261,trrhaley7@gmail.com,
Hege Construction,Winston Salem,NC,27127,(336) 650-1920,colehege@outlook.com,https://www.hegeconstruction.com
American Values Contracting,Serving theMorehead City Area,,,(252) 557-5647,americanvc@gmail.com,http://avcroofing.net
Roofing Services 4 You,Apex,NC,27502,(919) 446-6022,roofingservices4you@gmail.com,https://www.roofingservicesforyou.com
"Renosimplicity, Llc",Louisburg,NC,27549,(919) 986-9985,eichhor8@gmail.com,https://www.renosimplicity.com
Raleigh Roof Rescue,Raleigh,NC,27612,(919) 622-9256,tbrown@raleighroofrescue.com,https://www.raleighroofrescue.com
"Melvin's Roofing, Llc",Erwin,NC,28339,(910) 527-7288,melvinsroofing@gmail.com,https://www.melvinsroofing.com
"Roof Top Sentinels, Llc",Indian Trail,NC,28079,(704) 774-1072,veronicaelias@rooftopsentinels.com,https://www.rooftopsentinels.com
"A And T Home Improvements, Llc.",Wendell,NC,27591,,tammy@athomerepairs.org,https://www.aandthomeimprovements.com
Supreme Renovations,Ramseur,NC,27316,(919) 669-8780,tory@supremerenovationsllc.com,
Restoration Roofing Specialists Llc,Winston Salem,NC,27120,(336) 448-0484,olandawms@gmail.com,https://restorationroofingspecialists.com
Phase 4 Construction,Greenville,NC,27858,(215) 872-9931,phase4construction@gmail.com,
Coastal Building Concepts,Wilmington,NC,28405,(910) 798-2880,ann@coastalbuildingconcepts.com,http://www.coastalbuildingconcepts.com
Pm Home Solutions Llc,Monroe,NC,28112,(704) 254-5764,philip@pmhomesolutions.net,http://pmhomesolutions.net/page.php
Allied Building Products,Greenville,NC,27834,(252) 756-9989,marty.palmer@alliedbuilding.com,https://www.becn.com/welcome-to-beacon
"Michael & Son Services Of North Carolina, Llc",Raleigh,NC,27604,(919) 371-2306,basim.mansour@michaelandson.com,https://michaelandson.com
Interstate Roofing Co,Charlotte,NC,28217,(704) 525-3143,jtaylor@interstateroofing-nc.com,https://www.interstateroofingco.com
"Arthur, K W And Son Inc",Statesville,NC,28677,(704) 636-1851,kwarthur@carolina.rr.com,
Shaver Roofing Services Llc,High Point,NC,27260,(336) 886-1003,mike@shaverroofing.com,http://www.shaverroofing.com
"Universal Home Solutions, Inc.",Matthews,NC,28105,(704) 249-6655,jamesd@universalhomesolutions.com,https://universalhomesolutions.com
Pearce Brothers Roofing,Serving theHenderson Area,,,(919) 670-1120,d.pearce104@nc.rr.com,https://www.pearcebrothersroofingnc.com
"Camino, Inc.",Mooresville,NC,28117,(980) 722-7370,steve@sellersandcompany.biz,
Garner Roofing Co-Sanford Inc,Sanford,NC,27330,(919) 776-4420,garnerroof@windstream.net,
Extreme Roofing,Chesnee,SC,29323,(864) 415-1552,extremeroofing@gmail.com,
Cne Home Improvement,Serving theGreensboro Area,,,(336) 645-9996,cnehomeimp@windstream.net,http://www.cnehomeimprovement.com
Exterior Master,Serving theConcord Area,,,(704) 918-2321,exteriormaster@hotmail.com,
Mccalls' Roofing Painting & Remodeling,Statesville,NC,28677,(704) 450-8574,mccallmarvin1@gmail.com,
All In One Foley Construction,Jacksonville,NC,28540,(336) 528-5482,clifffoley1987@gmail.com,
"Chiaramonte Roofing And General Contractors, Inc.",,,,(732) 788-4912,bridget@chiaramonteroofing.com,http://www.chiaramonteroofing.com
Complete Roofing,Jacksonville,NC,28546,(228) 712-5500,completeroofingllc01@gmail.com,https://completeroofingllc.net
Quantum Roofing,Asheville,NC,28803,(828) 808-5955,james@quantumroofingcompany.com,https://www.quantumroofingcompany.com
Brent Johnson Construction Llc,Harrisburg,NC,28075,(704) 361-7170,bjcroofs@gmail.com,
K P Steel,Brevard,NC,28712,(828) 883-4747,kpsteelinc@gmail.com,
Classic Home Renovations,Hickory,NC,28601,(828) 466-0200,mark@classichomerenovations.com,http://www.classichomerenovations.com/remodel
Fdc Construction & Investments,Serving theCharlotte Area,,,(704) 492-0719,renzoalva@fdcconstruction.com,https://fdcconstruction.com
W.T. Anderson-Raleigh,Raleigh,NC,27609,(919) 230-0515,w.t.andersoncorp@gmail.com,https://wtandersoncorp.com/raleigh
Affordable Roofing & Construction,Wilmington,NC,28403,(910) 338-9654,kris.stone@afrcons.com,https://afrcons.com
Aslynn's Gutter & Guard,Greensboro,NC,27408,(336) 486-9592,djmysee@outlook.com,
Triangle Roofing Services Inc,Zebulon,NC,27597,(919) 269-8882,chris@triangleroof.com,http://www.triangleroof.com
Alamance Insulation & Gutters,Elon,NC,27244,(336) 584-1117,alamanceinsulation@outlook.com,https://alamanceinsulationllc.com
Allied Roofing Company,Kernersville,NC,27284,(336) 993-8038,rtrute@alliedrfg.com,https://www.alliedrfg.com
"Framing Crew Construction Co., Llc",Greensboro,NC,27407,(336) 382-1452,eldroofer@hotmail.com,http://www.framingcrewconstructioncompanyinc.com
A & Q Roofing,Serving theNew Bern Area,,,(252) 617-8157,boonekareem1@gmail.com,https://aqroofing.org
Contract Exteriors,Wilmington,NC,28403,(910) 769-7778,randy.hann@contractexteriors.com,https://contractexteriors.com
"Sun Dollar Energy, Llc",Raleigh,NC,27616,(919) 508-6907,sundollarenergy@gmail.com,https://covenantsolar.com
Gate City Renovations Inc,Greensboro,NC,27407,(336) 362-4340,gatecitypaint@gmail.com,https://gatecityrenovations.com
J & H Roofing Group,Greensboro,NC,27407,(336) 944-6737,jandhroofing@hotmail.com,
Clodfelter Roofing Company,Winston-Salem,NC,27101,(336) 722-8578,commercialsolutions@nc.rr.com,https://www.theflatroofspecialists.com
Treadlite Roofing,Serving theFayetteville Area,,,(910) 764-6574,treadliteroofing@contractor.net,http://www.treadliteroofing.com
Woolf's Construction & Roofing,,,,(704) 313-9527,russell@woolfscustomcarpentry.com,https://woolfscustomcarpentry.com/
Gutter Mafia,Huntersville,NC,28078,(704) 605-4320,guttermafiacbarnes@gmail.com,https://gutter-mafia.business.site
Singleton Enterprise,Lewisville,NC,27023,(336) 734-8658,hjsingleton@live.com,https://www.singletonroofs.com
Thomas Construction,Harrisburg,NC,28075,(704) 207-8758,rtxbob@dejazzd.com,
Innovative Construction & Remodeling,Belmont,NC,28012,(980) 216-9853,innovativecr@yahoo.com,
Lookup Roofing,Cary,NC,27518,(919) 757-3821,lookuproofing@gmail.com,https://www.lookuproofing.com
Roof Pro Nc,Serving theNew Bern Area,,,(252) 514-3036,roofpronc1@gmail.com,https://www.carolinaroofpro.com
Paul Williams Roofing & Guttering,Elizabethtown,NC,28337,(910) 624-7530,mrs.gutters@gmail.com,https://www.pawilliamsroofing.com
Best Distributing,Monroe,NC,28110,(704) 226-9142,tbarrow@bestdist.com,https://www.becn.com/
Mk's  Windows,Mount Holly,NC,28120,(704) 729-6256,mkswindows@carolina.rr.com,
N C Metal Supply,Fayetteville,NC,28301,(910) 401-7030,ncmetalsupply@gmail.com,
Doug Limeberry Roofing Co,Hendersonville,NC,28792,(828) 693-0439,douglimeberryroofing@gmail.com,https://www.douglimeberryroofing.com
Windows & Siding By Mike Graham,Timberlake,NC,27583,(919) 236-9320,mikegrahamwindows@gmail.com,https://mikegrahamexteriors.com
"Lee's Drywall, Plaster & Stucco Llc",,,,(919) 365-0458,wlee@globalwalls.com,https://www.globalwalls.com
"Skyview Roofing & Restoration, Llc",Cornelius,NC,28031,(704) 237-4577,steve@skyviewroofingllc.com,http://www.skyviewroofingllc.com
Mid State Roofing & Construction,Rural Hall,NC,27045,(336) 499-5755,midstateroofing3385@gmail.com,
"Ridge Valley Exteriors, Inc.",Raleigh,NC,27609,(844) 741-7663,derric@ridgevalleyexteriors.com,
"Premier Home Solutions, Inc.",High Point,NC,27265,(336) 307-4634,premierhomesolutionsnc@gmail.com,
Centimark Roofing Systems,Charlotte,NC,28208,(704) 916-5098,marty.shisler@centimark.com,https://www.centimark.com
Gulf Eagle Supply,Charlotte,NC,28206,(704) 926-1180,smcclain@gulfeaglesupply.com,https://www.gulfeaglesupply.com
Jdroofingandrepairsservicesllc,Charlotte,NC,28227,(704) 236-9975,jccarlo41@gmail.com,
Howe Roofs,Fort Mill,SC,29707,(803) 548-3962,don@howeroofs.com,
"Thr Design Build, Inc.",Charlotte,NC,28204,(704) 595-3573,drew@thrdesignbuild.com,https://www.thrdesignbuild.com
Rb Restoration Builders S Corporation,Serving theConcord Area,,,(704) 284-5012,rb@rbrestorationbuilders.com,
On Top Of Things Contracting,Wendell,NC,27591,(919) 669-2739,brooks@ontopofthingscontracting.com,https://www.ontopofthingscontracting.com
Jackson Roofing And Home Improvements,Parkton,NC,28371,(910) 229-0127,meatmater1244@gmail.com,
B-K Construction Co,Mills River,NC,28759,(828) 890-1782,bkconstruction86@gmail.com,https://www.bkconstructionco.com
Abc Homeshield,Monroe,NC,28110,(704) 729-7074,homeevolution@icloud.com,
"Alpha Omega Construction Group, Inc.",Winston Salem,NC,27107,(336) 252-2868,stuart.greifinger@alpha-omegainc.com,https://www.alpha-omegainc.com
Mid Atlantic Roofing Systems Inc.,Winston-Salem,NC,27106,(336) 448-4749,jharringtonmars@gmail.com,https://midatlanticroofingsystems.com
Eddy's Painting And Renovation,Durham,NC,27703,(919) 627-2321,eddyspaintingandrenovation@gmail.com,http://eddyspaintingrenovation.com
All Around Handyman,Nashville,NC,27856,(252) 406-3639,mrrobmoore@hotmail.com,
Weathergard Inc,Monroe,NC,28111,(704) 289-6404,weathergardinc@hotmail.com,https://www.weathergardinc.com
Kustom Disaster Recovery & Restoration,Raleigh,NC,27606,(866) 679-0699,george.kaminski@kustom.us,https://kustom.us
Cdi Builders,Serving theHigh Point Area,,,(336) 210-1912,joe@cdibuilders.com,http://cdibuilders.com
Whitehill Home Imp,Kannapolis,NC,28081,(704) 363-5491,whitehill@gmail.com,
Foothills Cleaning & Restoration,Marion,NC,28752,(828) 559-0477,foothillsrestoration@gmail.com,https://www.foothillsrestoration.com
Les Pence Construction & Roofing,Chesnee,SC,29323,(864) 444-5777,les@lespenceconstruction.com,http://www.lespenceconstruction.com
"Lewis Construction Company, Llc",Raleigh,NC,27610,(919) 669-9108,scottlewisconstruction51@gmail.com,https://ncdamagedroof.com
Carolina Atlantic Distributors,Sanford,NC,27332,(800) 672-3555,lisameadows@carolinaatlantic.com,https://www.carolinaatlantic.com
Dlc Home Improvement,Weldon,NC,27890,(252) 645-9135,d.cannady16@gmail.com,
Langley Contracting,Greenville,NC,27834,(252) 214-7663,langleycontractingllc@gmail.com,https://214roof.com
Buncombe Roofing,Asheville,NC,28806,(888) 798-0736,buncomberoofing@gmail.com,
"Four Seasons Seamless Gutters, Inc",,,,(252) 432-4933,greg@fourseasonsguttersinc.com,https://www.fourseasonsguttersinc.com
James Taylor Construction Services Inc,Raleigh,NC,27608,(919) 901-7506,james@jtcroofs.com,http://www.jtcroofs.com
American Roof Patchers,Fountain,NC,27829,(252) 406-5026,rgrforbes@gmail.com,
Built Restoration And Construction Services,Charlotte,NC,28217,(704) 604-0245,builtrestoration@gmail.com,http://builtrestoration.com
Blair Maintenance,Spring Hope,NC,27882,(252) 469-0449,blairsmaintenance@gmail.com,http://www.blairmaintenance.com
Alhan Llc,Greensboro,NC,27455,(336) 268-0496,anesoliman@gmail.com,
Custom Siding Gutters & Home Improvement,Henderson,NC,27537,(252) 492-8091,claycustom@hotmail.com,http://customsidingandgutters.com/
All Phase Exteriors Inc,Concord,NC,28025,(704) 788-3330,duane@allphaseexteriors.com,http://allphaseexteriors.com
Bond Roofing,Raleigh,NC,27609,(919) 787-7979,drivera@bakerroofing.com,https://www.bondroofs.com
United One Roofing,Durham,NC,27704,(919) 730-5176,josemosqueda62@gmail.com,http://unitedoneroofing.com
Blue Ridge Roofing Llc,Asheville,NC,28803,(828) 782-7072,blueridgeroofingllc@gmail.com,
"Pinnacle Roofing & Exteriors, Inc.",Charlotte,NC,28217,(704) 527-3508,ben@pinnacleroofinginc.net,https://www.pinnacleroofinginc.net
"Foothills Exteriors, Llc",Landrum,SC,29356,(864) 304-5722,randy@foothillsexteriors.com,http://foothillsexteriors.com
Houses For Sale Jacksonville Nc,Jacksonville,NC,28546,(910) 750-6793,rebeccajquick@gmail.com,https://www.housesforsalejacksonvillenc.com
"Foam Applicators, Inc.",Denver,NC,28037,(704) 483-2828,foamapplicators@hotmail.com,http://www.foamapplicators.net
The Roof Genie,Fayetteville,NC,28311,(910) 366-2464,theroofgenie@gmail.com,
"Southeastern Roofing And Restoration, Llc",Rock Hill,SC,29732,(803) 324-7663,tim@seroofpros.com,https://seroofpros.com
K & R Roofing & Gutters,,,,(252) 353-1557,krseamlessgutters2@gmail.com,https://www.kandrroofingandgutters.com
Superior Roofing & Remodeling Company,Dunn,NC,28334,(910) 891-4217,john.chaplin24@gmail.com,
Priority Roofing And Exteriors,Chapel Hill,NC,27517,(919) 762-6866,priorityroofingnc@gmail.com,https://www.priorityroofingnc.com
Thorne Roofing Company Llc,Pittsboro,NC,27312,(919) 260-0524,kristine.villaflor@thorneroofing.com,https://thorneroofing.com
Coastal Roofing And Waterproofing,Serving theLeland Area,,,(910) 465-6810,coastalroofandwaterproof@gmail.com,http://coastalroofnc.com
Carolina Building Specialists Inc,Serving theLeland Area,,,(910) 458-8587,cbstgreer@hotmail.com,http://www.metalroofingwilmington.com
Camden Roofing & Construction,Charlotte,NC,28217,(704) 858-2141,camdenroofing@gmail.com,https://camdenroofinggc.com
Belk Builders,Charlotte,NC,28204,(704) 400-4710,kent@belkcustombuilders.com,https://belkcustombuilders.com
Custom Design & Construction,Raleigh,NC,27603,(336) 781-9786,downeastmasonry209@gmail.com,https://allusefulinfo.com/top-5-websites-to-design-your-own-clothes-online-for-free
"Summit Roofing Of Nc, Llc",Raleigh,NC,27606,(919) 457-1117,brantley@summitroofingnc.com,https://summitroofingnc.com
"Snipes, Chance Roofing",Burlington,NC,27217,(336) 227-3213,carld@watkinsroofing.net,https://www.watkinsroofing.net
A & M Burns Renovations,Shelby,NC,28150,(704) 692-6770,amburnsrenovations@gmail.com,https://amburnsrenovations.com
Ram Home Restoration Goat,Serving theCary Area,,,(919) 656-3976,ramhomerp@gmail.com,https://www.ramhomerepair.com/suspended.html
Carswell Construction & Restoration,Shelby,NC,28150,(980) 295-2583,dmillerccr042@gmail.com,http://www.carswellconstructionandrestoration.com
Dry Sky Roofing,Kannapolis,NC,28083,(704) 412-3636,dryskyroofing@gmail.com,https://www.dry-sky.com
Property Management Solutions Roofing & Fencing,Statesville,NC,28677,(704) 450-0839,shawnbaugher72@gmail.com,
Milton Hobbs Construction,Serving theRaleigh Area,,,(919) 779-2016,miltonhobbsconst@gmail.com,http://www.miltonhobbsconstruction.com
"Precision Roofing, Gutter & Siding",Lake Wylie,SC,29710,(877) 511-7477,edward@gopgrs.com,https://www.gopgrs.com
Padgett Roofing & Building Company,Marion,NC,28752,(828) 738-4642,rpadgett1@hotmail.com,
"Gator Gutter Guard Of Chapel Hill, Nc",Chapel Hill,NC,27516,(919) 341-8282,usaguttersystems@gmail.com,https://gatorgutterguard.net
M & M Painting And Remodeling,Serving theGreenville Area,,,(252) 505-2673,mac.75@live.com,
Harts Window & Siding,Serving theWilmington Area,,,(910) 343-8141,hartswindows@bellsouth.net,
Pro Roofing Plus,Hickory,NC,28601,(828) 578-6333,bshook@proroofingplus.com,
Aaa Affordable Roofing,Serving theHuntersville Area,,,(704) 564-5597,aaaaffordableroo@bellsouth.net,http://aaaaffordableroofing.com
Pierce Painting&Remodeling,Sanford,NC,27332,(919) 721-2033,piercepainting60@gmail.com,
Jdm Roofing,Fayetteville,NC,28306,(910) 485-3246,jdmroofingnc@gmail.com,https://www.roofingcontractorfayetteville.com
Tqm Roofing Inc.,Statesville,NC,28625,(704) 878-6007,bill@tqmroofing.com,https://www.tqmroofing.com/
Acc Roofing,Serving theRaleigh Area,,,(919) 349-3645,fabianosc@gmail.com,https://accroofing.com
Curtis Construction Co Inc,Kinston,NC,28504,(252) 523-1078,jason@curtiscc.com,http://www.curtiscc.com
Gaston Roofing & Siding,Belmont,NC,28012,(704) 861-8166,matthewdockery@gastonroofing.com,https://gastonroofing.com
A A A Home Improvement,Greensboro,NC,27407,(336) 674-2320,deeswhitley@gmail.com,
Jw Services Inc Of Nc,Concord,NC,28025,(704) 789-3090,john.worden@jwservicesofnc.com,https://www.jwservicesofnc.com
A K Construction Co.,Lake Toxaway,NC,28747,(828) 551-0593,adamkitchen94@gmail.com,https://www.akconstructionnc.com
"Imperial Construction Group, Llc",Huntersville,NC,28078,(704) 654-2515,trevor@icgcharlotte.com,https://imperialconstructiongroupllc.com
Daniel's Roofing,Serving theWendell Area,,,(919) 426-6200,daniel@danielsroofingllc.com,https://www.danielsroofingnc.com
Southend Painting & Roofing Contractors,Serving theCharlotte Area,,,(704) 522-0000,joan@southendpainting.com,https://southendpainting.com
Pridemark Roofing Company,Advance,NC,27006,(336) 998-5040,mike@pridemarkroofing.com,http://pridemarkroofing.com
Maximum Construction,Durham,NC,27701,(919) 682-2829,boxreed670@msn.com,http://maximum-construction.com
"Tqm Roofing, Inc.",Statesville,NC,28625,(704) 878-6007,dwayne@tqmroofing.com,http://www.tqmroofing.com
"Spilman, Inc.",Raleigh,NC,27614,(919) 510-0280,jspilman@nc.rr.com,http://www.spilmaninc.com
Creed & Garner Roofing Company,Aberdeen,NC,28315,(910) 420-3709,creedgarnerroofing@hotmail.com,https://creedgarnerroofing.com
Gastonia Home Improvement,Serving theGastonia Area,,,(704) 898-3184,talmond@gastoniahomeimprovement.com,https://gastoniahomeimprovement.com
S And G Roofing,Pfafftown,NC,27040,(336) 698-6914,forsytheroofer@gmail.com,
"Certified Roofing & Siding Specialist, Llc",Wilmington,NC,28401,(910) 556-3777,david@certifiedroofingspecialist.net,https://certifiedroofingspecialist.net
D And A Roofing,Wilmington,NC,28403,(910) 765-0101,roofingandmetal.02@gmail.com,https://www.dandaroofing.com
Metal Roofing Systems Inc,Stanley,NC,28164,(704) 820-3110,jeremiah@metalroofingsystems.biz,http://metalroofingsystems.biz
Dry Tech Commercial Roofing Services Inc,Mooresville,NC,28117,(704) 660-6957,rkarns@drytechroofing.com,https://www.drytechroofing.com
Investor's Choice,Fayetteville,NC,28306,(910) 527-4915,jmvktm@msn.com,https://www.investors-choice.com
Five Star Roofing & Exteriors,Serving theDurham Area,,,(919) 259-5898,fivestar@fivestarroofingnc.com,https://fivestarroofingnc.com
B.L. Roofing Services,Raleigh,NC,27610,(919) 889-5724,carrerabraulio@gmail.com,
Decker Home Improvement,Taylors,SC,29687,(864) 416-1620,deckerhomerepairs@gmail.com,https://deckerhomerepairs.com
Paul Williams Roofing And Guttering Service,Fayetteville,NC,28306,(910) 779-4221,paulpaulwilliams63@gmail.com,https://www.pawilliamsroofing.com
Landmark Roofing Llc,Hickory,NC,28601,(828) 855-2464,justin@landmarkroofingllc.com,http://landmarkroofingllc.com
Rcb Roofing & General Construction,Summerfield,NC,27358,(336) 669-0932,leoreitzel@gmail.com,
Tradewinds Roofing,Charlotte,NC,28278,(704) 323-6028,tradewindsroofingnc@gmail.com,
House & Building Solutions,Cornelius,NC,28031,(704) 507-4579,kellie.avasthi@gmail.com,
Supreme Renovations Llc,Ramseur,NC,27316,(919) 669-8780,ashley@supremerenovationsllc.com,https://www.supremerenovationsllc.com
Home Towne Roofing Systems,Clayton,NC,27520,(919) 624-3557,matt@hometowneroofingsystems.com,https://www.hometowneroofingsystems.com
"Cbs Roofing, Inc.",Apex,NC,27502,(919) 362-6199,david@cbsroofing.com,https://www.cbsroofing.com
Joe's Roofing & Home Improvement,Winston Salem,NC,27106,(336) 399-5081,joesroofing@gmail.com,https://grubbsrenovations.com
Sandhills Premier Roofing,Southern Pines,NC,28387,(910) 876-2097,sandhillspremierroofing@gmail.com,https://www.sandhillspremierroofing.com
Empire Roofing,Fayetteville,NC,28305,(910) 500-9001,juan@myempireroofing.com,https://myempireroofing.com
Thompson Roofing Co,High Point,NC,27262,(336) 883-9815,at@trs1llc.com,http://thompsonroofing.com
Roofing Supply,Garner,NC,27529,(919) 779-6223,aword@roofingsupplygroup.com,https://www.becn.com/welcome-to-beacon
B&D Roofing Solutions,High Point,NC,27262,(336) 899-1985,donna.frey@bndroofing.net,https://bndroofing.net
Trademark Roofing & Gutter Co.,Holly Springs,NC,27540,(919) 577-8050,trademarkinc@embarqmail.com,https://www.trademarkroofingandgutter.com
Ready Roofing Wilmington,Wilmington,NC,28403,(910) 377-0248,justin@readyroofing.com,https://www.readyroofing.com
B & P Roofing,Danville,VA,24541,(434) 429-7108,brandon@bandproofing.com,https://www.bandproofing.com
Ideal Roofing & Paving,Winston Salem,NC,27101,(336) 283-5831,mrdentpro@gmail.com,
Bullets Contracting Llc,Hendersonville,NC,28792,(828) 329-9195,chrisbullet985@gmail.com,
Top Notch Roofing & Maintenance,Raeford,NC,28376,(910) 281-3856,roofingtopnotch@hotmail.com,
"Freeman's Exteriors, Inc.",Indian Trail,NC,28079,(704) 821-9268,freemansexteriors@carolina.rr.com,http://www.freemansroof.com
Eagle Roofing And Restoration Llc,Apex,NC,27502,(919) 363-3575,brittany@eagleroofingpro.com,https://www.eagleroofingpro.com
C & L Seamless Guttering,Seagrove,NC,27341,(336) 879-3761,clgutter@rtmc.net,
Thompson Roofing Services,Sophia,NC,27350,(336) 495-2598,bt@trs1llc.com,
Albemarle Builders Supply Inc.,Elizabeth City,NC,27909,(252) 335-4343,albemarlebuilders@usa.com,https://www.albemarle.org
Union Roofing,Serving theIndian Trail Area,,,(704) 289-1459,unionroofinginc@gmail.com,https://www.unionroofing.net
Oxygen Roofing,Holly Springs,NC,27540,(919) 888-8178,henry.oxygenroofing@gmail.com,
Oak City Roofing,Cary,NC,27518,(919) 473-3655,stuart@oakcityroofing.com,https://www.oakcityroofing.com
Beam's Home Repair And Renovations,Lincolnton,NC,28092,(704) 308-6916,beamshomerepair@gmail.com,
"Joe Campbell Roofing, Inc.",North Wilkesboro,NC,28659,(336) 696-3839,amarston@campbellroofing.com,https://campbellroofing.com
Rafaels Quality Roofing And Construction,Waxhaw,NC,28173,(704) 256-4937,rafael@rqchomerepairs.com,https://www.rqchomerepairs.com
Lundberg Specialty Services,Charlotte,NC,28277,(704) 926-6577,jenlundberg@mail.com,
Jl Contractors,Charlotte,NC,28277,(704) 277-6613,jlexteriors@gmail.com,
Advanced Roofing And Exteriors,Charlotte,NC,28277,(704) 999-4130,advancedroofingandexteriors@gmail.com,https://advancedroofingandexteriors.com
"Build Moore Exteriors, Llc",Serving theDurham Area,,,(919) 225-0488,dwightm55@gmail.com,https://buildmooreexteriors.com
"Lemus Roofing & Remodeling, Inc.",Greensboro,NC,27409,(336) 362-4154,lemusroofing1@gmail.com,https://www.lemusroof.com
Findlay Roofing,Charlotte,NC,28202,(704) 333-5450,sabo@roofroofnc.com,https://www.roofroofnc.com
Quality Roofing & Construction,Greensboro,NC,27408,(866) 398-1017,goodroofs@gmail.com,
American Renovations,Greensboro,NC,27455,(336) 587-5371,arthurboykin40@gmail.com,https://americanrenovationsus.com
21 Roofing Group,Charlotte,NC,28277,(980) 277-4421,tonygaray@live.com,https://21roofinggroup.com
Centimark,Apex,NC,27539,(919) 792-6256,adrian.bragg@centimark.com,http://www.centimark.com/
Bid King Contracting,Serving theWilmington Area,,,(910) 524-9084,bidkingcontracting@gmail.com,http://www.bidkingnc.com
Charlotte Pro Roofing,Charlotte,NC,28277,(704) 575-3185,charlotteproroofing@gmail.com,
Economy Home Improvement,Havelock,NC,28532,(252) 514-7856,thekillerjoker@gmail.com,
Brewer's Roofing & Construction,Serving theFayetteville Area,,,(910) 775-0243,brinsonandmiller@gmail.com,https://na68.salesforce.com/visualforce/session
Victors Construction,Raleigh,NC,27604,(919) 240-1908,pedroramos6939@gmail.com,
Perkins Roofing,Hickory,NC,28602,(336) 753-8355,jjesseperkins@yadtel.net,
Gregory's Home Improvements,Durham,NC,27704,(919) 683-1448,joe@gregoryhomeimprovement.com,https://www.gregoryhomeimprovements.com
"Quality Design & Construction, Inc.",Raleigh,NC,27603,(919) 779-3964,peggy@qdcinc.com,https://qdcinc.com
Tom Buzzard Co,Raleigh,NC,27616,(919) 231-6088,tom@tombuzzard.com,https://www.tombuzzard.com
Jewlz Roofing,Concord,NC,28025,(704) 438-1033,jctidd00@gmail.com,
Dimensional Metals Inc,Salisbury,NC,28146,(704) 279-9691,brian_antal@dmimetals.com,https://dmimetals.com
Bissette Larry Inc,Apex,NC,27539,(919) 773-2140,larrybissette@hotmail.com,
Mitchell Custom Builders Inc,Dobson,NC,27017,(336) 352-5535,jcmbuilders@surry.net,
Elite Roofing,Aberdeen,NC,28315,(910) 585-6425,eliteroofingllc@hotmail.com,https://eliteroofingnc.com
Aaa Seamless Gutters,,,,(336) 431-9068,bryanholton@live.com,http://www.aaaseamlessgutters.net/
Advanced Roofing Solutions Llc,Fayetteville,NC,28311,(910) 988-8245,teamtonet@gmail.com,https://advancedroofingsolutionsllc.com
Hobbs Aluminum,Clayton,NC,27528,(919) 550-0887,wkey@hobbsiron.com,https://hobbsiron.com
King Roofing Pros,Albemarle,NC,28001,(704) 991-6324,kingroofingprosllc@gmail.com,https://www.kingroofingpros.com
Galaxy Roofing,Cornelius,NC,28031,(704) 770-6511,carlosdgalaxy@gmail.com,https://www.galaxyroofing.org
May Gutters,Newport,NC,28570,(877) 592-2250,shellyfaw@gmail.com,http://www.maygutters.com
"Jam Carolina Exteriors, Inc.",Durham,NC,27713,(919) 424-1933,chris@jamcarolina.com,https://jamcarolina.com
Arrington Metal Roofing,Granite Falls,NC,28630,(828) 850-9702,tuttlelumber@triad.rr.com,http://www.trustworthy-businesses.com/arrington_metal_roofing
Pac Contractors,Timberlake,NC,27583,(336) 364-7649,pac.contractors@hotmail.com,https://www.pacnccontractors.com
Baker Roofing Company,Raleigh,NC,27603,(919) 828-2975,dsbaker@bakerroofing.com,http://bakerroofing.com/
Behold Roofing Llc,Sanford,NC,27332,(919) 591-4721,xaviervelastegui@gmail.com,https://beholdroofing.com
The Century Slate Co.,Durham,NC,27713,(919) 544-8890,mike@centuryslate.com,https://www.centuryslate.com
"Southern Restoration Maintenance, Inc.",Charlotte,NC,28205,(704) 334-7663,srm.incorp@gmail.com,https://www.srm-inc.net
Baker Roofing Company,Fletcher,NC,28732,(828) 209-0608,tkavanaugh@bakerroofing.com,http://bakerroofing.com/asheville-roofing-company
Kingrome Roofing,Albemarle,NC,28001,(704) 231-5653,classick88@hotmail.com,
Sivad Construction,Raleigh,NC,27603,(919) 228-9663,davisproinc@gmail.com,https://sivadnc.com
Jim Dalton Inc,Serving theAsheville Area,,,(828) 687-9869,jim@jdcroofing.com,https://jdcroofing.com
Decks Plus,Clayton,NC,27527,(919) 585-2587,sstocks101@gmail.com,https://www.decksplusllc.com
F A Ray Roofing & Home Improvement,Cary,NC,27511,(919) 656-0268,myk8729@hanmail.net,http://faray.net
J & K Construction Llc,Greenville,NC,27858,(252) 689-8323,jose@jkconstructionnc.com,https://www.jkconstructionnc.com
Charlotte Restoration Of N.C.,Charlotte,NC,28277,(800) 495-9524,charlotterestoration@gmail.com,
Ab Building & Remodeling,Serving theMorehead City Area,,,(252) 515-0340,alan@abbuilds.com,https://abbuilds.net
Cruz Roofing Co & Home Improvement,Serving theRaleigh Area,,,(252) 915-0247,cruzroofingco@gmail.com,
Statewide Roofing Specialists Llc,Lexington,NC,27295,(336) 918-7737,terrycribbjr@gmail.com,
Mecklenburg Roofing Inc,Serving theHuntersville Area,,,(704) 329-0695,debbie@mecklenburgroofing.com,http://www.mecklenburgroofing.com
Advanced Roofing & Exteriors,Fort Mill,SC,29707,(803) 547-6255,kevin@advancedroofingandexteriors.com,http://www.advancedroofingandexteriors.com
Jag Construction,Mooresville,NC,28117,(704) 929-6068,johncrowley@jagconstructioncorp.com,https://www.jagconstructioncorp.com
Jason's Home Improvement,Charlotte,NC,28211,(704) 366-0088,homeimprovementbyjason@gmail.com,
"L N Ticos Construction, Inc.",Harrisburg,NC,28075,(571) 235-5739,lnticosconstruction@hotmail.com,https://www.lnticosconstruction.com
"Curtis & Curtis, Inc.",Kinston,NC,28504,(252) 523-0295,rccurtis1@hotmail.com,https://www.curtisandcurtisroofing.com
Rci Inc,Raleigh,NC,27607,(919) 859-0742,kmcelroy@rci-online.org,https://rci-online.org
Carolinas Best Roofing,Greensboro,NC,27407,(336) 541-6595,francois@bestroofingcarolinas.com,https://bestroofingcarolinas.com
"Peaceathome, Inc",Wilson,NC,27893,(252) 236-8724,stayfocused.dw@gmail.com,
"Jacobs Construction, Inc.",Richlands,NC,28574,(910) 324-4855,wesley.corey@jacobs.com,https://www.jacobs.com
Flores & Foley Roofing,Wilmington,NC,28401,(910) 371-1400,pfoley@floresandfoley.com,https://www.floresandfoley.com
H & M Industries,Shelby,NC,28152,(704) 434-9900,hmiwindows9900@gmail.com,http://www.hmindustries.com
Piedmont Roofing,Taylorsville,NC,28681,(828) 635-7115,piedmontroofing1153@gmail.com,https://www.roofingpiedmont.com
Brian Creech Roofing Llc,Middlesex,NC,27557,(919) 269-8599,briancreechroofing71@gmail.com,https://briancreechroofing.com
Ccc Constrution Svs,Greensboro,NC,27407,(336) 451-3884,garciadaniel52.dg@gmail.com,
Bell Roofing Co,Hendersonville,NC,28739,(828) 692-2317,milesbell@bellroofingwnc.com,http://www.bellroofingwnc.com
Beacon Roofing Supply - Raleigh,Raleigh,NC,27603,(919) 500-5025,imihaly@beaconroofingsupply.com,https://www.becn.com
Sutherland Exteriors,Charlotte,NC,28217,(980) 219-8958,sutherlandsexteriors@gmail.com,https://sutherlandsexteriors.com
Lighthouse Roofing,Clemmons,NC,27012,(704) 763-1283,bturner.lighthouseroofing@gmail.com,
Full-Spec Home Repair,Waxhaw,NC,28173,(980) 636-2835,joshchisom@charlottefullspec.com,https://www.charlottefullspec.com
Roofing Contractors Apex Nc,Apex,NC,27502,(919) 307-2110,fann.y.s.mit.h.909.0@gmail.com,
Carolina Roofing & Home Improvements,Serving theGreenville Area,,,(252) 714-8766,comet630@gmail.com,
Roof Dawgs,Serving theRaleigh Area,,,(919) 427-3858,roofdawgs@gmail.com,
"Hometown Roofing, Llc",Cary,NC,27513,(919) 650-2413,hometownroofing20@gmail.com,https://hometownroofing-nc.com
Olde Raleigh Roofing,Raleigh,NC,27612,(919) 846-7227,olderaleighroofingandexteriors@gmail.com,http://www.olderaleighroofing.net/
Drew's Roofing & Home Repair,Southport,NC,28461,(910) 845-2207,roofingcontractor28461@gmail.com,https://drewsroofingandhomerepair.com
Ridge Crest Roofing And Restoration,Hiddenite,NC,28636,(828) 312-0246,rcrrestoration@gmail.com,https://www.ridgecrestroofing.com
"John Bauer, Roofing & General Building",Serving theDurham Area,,,(919) 923-6355,bauer.js@gmail.com,http://www.bbb.org/raleigh-durham/business-reviews/roofers/john-bauer-llc-roofing-and-general-building-in-chapel-hill-nc-90060904
"Wiser Roofing, Inc.",Raleigh,NC,27603,(919) 867-5505,michael.wiserroofing@gmail.com,https://www.wiserroofing.com
Pridemark Roofing,Advance,NC,27006,(336) 998-5040,pridemarkroof@juno.com,https://pridemarkroofing.tripod.com
Total Service Company,Charlotte,NC,28205,(704) 536-5509,totalserviceroofing4822@gmail.com,https://www.totalserviceroofing.com
"A.Q.Q.Roofing,Llc",Denver,NC,28037,(704) 483-5041,a.q.q.roofing@hotmail.com,http://www.aqqroofing.com
Housetop Roofing,Wake Forest,NC,27587,(919) 435-3667,housetoproofing@nc.rr.com,https://housetoproofing.com
All Around Roof Repair,Hendersonville,NC,28792,(828) 674-6138,roofer141@hotmail.com,
"Local Quality Roofing, Llc",Garner,NC,27529,(919) 348-6803,localqualityroofing1@gmail.com,https://localqualityroofing.com
Lmconstruction,Raleigh,NC,27616,(919) 441-6203,lmconstructionnc@hotmail.com,https://www.lmconstructionnc.com
"Wnc Roofing, Llc.",Arden,NC,28704,(828) 676-3070,stephanie@wncroofing.com,https://www.wncroofing.com
Your Dream Home Improvement Llc,Fayetteville,NC,28304,(910) 261-6350,ydhillc@gmail.com,https://yourdreamhomeimprovement.com
Lozano Roofing,Hillsborough,NC,27278,(919) 644-0229,lozanoroofing@hotmail.com,http://lozanoroofinginc.com
J. H. Home Improvements,Grifton,NC,28530,(252) 493-2432,franchise@homesandland.com,https://www.homesandland.com
Mr & D,Raleigh,NC,27616,(919) 862-8480,salesnc@mrnd.com,http://www.mrnd.com
Roof Randy,Waxhaw,NC,28173,(704) 243-0867,b.roof@cuttingedgespine.com,https://cuttingedgespine.com
Mfb Roofing,Angier,NC,27501,(910) 892-8009,mfbroofing28@gmail.com,
"J. Key Roofing, Llc",Raleigh,NC,27609,(919) 999-0268,jkeyroofing@gmail.com,https://www.jkeyroofing.com
Valentines Roofing Co,Serving theJacksonville Area,,,(919) 594-2551,valentinesroofing2010@gmail.com,https://valentinesroofingcompany.com
P & N Improvements,Canton,NC,28716,(828) 476-4905,pn.repairs94@gmail.com,
"Lawson Brothers Contractors, Llc",Bassett,VA,24055,(276) 629-1115,luxbathts@gmail.com,https://www.luxurybath.com
Remarkable Restorations,Charlotte,NC,28202,(704) 408-8304,remarkablerestorations@gmail.com,
Foam Comfort Systems,Mocksville,NC,27028,(336) 998-8889,foamcomfortsystems@gmail.com,http://foamcomfortsystems.com
Redemption Roofing & Restoration,Fuquay Varina,NC,27526,(919) 762-5490,cpraizner@gmail.com,
"Carolina East Home Improvements, Llc",Winterville,NC,28590,(252) 717-2057,brookscleaton@gmail.com,https://carolinaeasthomeimprovements.com
Imperial Roofin Roofing,Statesville,NC,28677,(980) 223-8039,imperialroofingpros@gmail.com,http://imperialroofing.org
Castle Roofing,Burlington,NC,27217,(336) 499-0445,castleroof@hotmail.com,https://castleroofingnc.com
"Unified Custom Carpentry,Inc",Apex,NC,27539,(919) 201-5396,unifiedcarpentry@gmail.com,
Roofing Supply Group,Raleigh,NC,27610,(919) 779-6210,rszot@rsgroof.com,https://www.becn.com/welcome-to-beacon
Gt Custom Builders Llc,Gibsonville,NC,27249,(336) 285-7720,gtcustom@triad.rr.com,
Venturist,Raleigh,NC,27609,(919) 439-8990,lais@thesmartlift.com,https://www.thesmartbath.com
"Brackett Maintenance Services, Llc",Davidson,NC,28036,(704) 201-0833,david.brackett@bmsroofs.com,https://www.bmsroofs.com
Chandler Company General Contractors,Southern Pines,NC,28387,(910) 690-6953,chandlercompanies@gmail.com,http://chandlergeneralcontractors.com
Dana Dean Roofing Company,Raleigh,NC,27604,(919) 986-7686,danadeanjr@danadeancoroofing.com,https://danadeancoroofing.com
Level Construction & Remodeling,Willowsprings,NC,27592,(919) 275-4017,rudy.levelconstruction@gmail.com,
Complete Home Maintenance,Brevard,NC,28712,(828) 877-2467,completehome828@gmail.com,https://www.completehome828.com
Dunn & Abee Inc,Charlotte,NC,28206,(704) 333-9397,jason@dunnabee.com,https://dunnabee.com
Signature Exteriors,Charlotte,NC,28202,(704) 729-4898,michael@signatureexteriorsinc.com,https://signatureexteriorsinc.com
Carolina Seamless Gutter Co,New Bern,NC,28560,(252) 636-5835,carolinagutter@gmail.com,https://www.carolinagutter.com
Pisgah Roofing And Restoration,Asheville,NC,28806,(828) 275-8503,jbassett.prr@gmail.com,https://pisgahroofingandrestoration.com
A & B Home Improvements,Serving theConcord Area,,,(704) 701-5631,aandbhomeimprovements@gmail.com,http://www.aandbhomeimprovements.com
Infront Roofing,Holly Springs,NC,27540,(877) 325-1313,kaitlyn.overmire@infrontroofing.com,https://www.infrontroofing.com
A-D's Metal Roofing,Morehead City,NC,28557,(252) 269-7556,admetalroofingnc@gmail.com,http://www.admetalroofing.com
Summit Bsr Roofing,Mount Holly,NC,28120,(704) 827-7677,bsr7777777@aol.com,https://www.summitbsr.com
Home Work Consulting,Charlotte,NC,28262,(980) 223-6524,homewconsulting@gmail.com,https://www.homewconsulting.com
Bgc Expert Contractors,Serving theClayton Area,,,(980) 312-2617,lauren@bgcexperts.com,https://bgcexpertsnc.com
D & S Roofing,Serving theWinston Salem Area,,,(336) 786-6399,alex@tsroofingsystems.com,https://www.tsroofingsystems.com
"Koala Roofing, Llc",Durham,NC,27713,(919) 762-5982,phillip@koalaroofingco.com,https://www.koalaroofingco.com
"Carolina Slate, Llc",Chapel Hill,NC,27516,(919) 448-5222,ricardo@carolinaslate.com,https://carolinaslate.com
Teamcraft Roofing,Raleigh,NC,27603,(919) 437-9299,lancelot.linenberger@tcrfg.com,https://www.tcrfg.com
Powers Construction & Services,Aurora,NC,27806,(252) 672-2235,powersconstruction2221@gmail.com,
Ascend Roofs,Charlotte,NC,28277,(252) 903-2016,ascendroofs@gmail.com,https://www.ascendroofs.com
Ronnie Ransom Construction,Serving theGastonia Area,,,(704) 864-7547,ronnieransom@carolina.rr.com,
"Moss Home Improvement & Roofing, Inc.",Danville,VA,24541,(434) 685-7370,chris@mosshomeimprovement.com,https://mosshomeimprovement.com
Dalton's Custom Roofing & Gutter,Garner,NC,27529,(919) 779-3530,christopher.sellers@centimark.com,
"W.D. Osborne Construction Co., Inc.",Durham,NC,27707,(919) 493-2936,wdosborneconst@earthlink.net,http://www.wdosborne.com
Heritage Roofing And Contracting,Rural Hall,NC,27045,(336) 341-3092,heritagercnc@gmail.com,
King Roofing Consultants,Charlotte,NC,28209,(704) 208-7021,j.rowan@kingroofingconsultants.com,http://www.kingroofingconsultants.com
Aaa Seamless Gutters,Serving theGreensboro Area,,,(336) 431-9068,aaaseamlessgutters88@gmail.com,http://aaaseamlessgutters.net
Gaf Materials Corp,Dudley,NC,28333,(919) 581-9501,tdudley@gaf.com,http://www.gaf.com
The Remodeling Company,Knightdale,NC,27545,(919) 659-0373,kevin@theremodelingcompany.org,https://www.trcofnc.com
"Generations Roofing, Llc.",Apex,NC,27539,(919) 935-9368,generationsroofingnc@gmail.com,https://www.generationsroofing.com
Emerald Isle Ems,Emerald Isle,NC,28594,(252) 354-2249,frush@emeraldisle-nc.org,https://www.emeraldisle-nc.org/emergency-medical-services
Southern Roofing,Granite Falls,NC,28630,(828) 396-4474,leanne@southernroofingllc.com,https://southernroofingllc.com
Jl Tucker Construction,Serving thePinehurst Area,,,(910) 690-0167,jltucker22@hotmail.com,http://jltuckerconstruction.com
"Old Timers Roofing, Inc.",Greensboro,NC,27408,(336) 937-7663,ryan@oldtimersroofing.com,https://oldtimersroofing.com
Jdm Roofing,Fayetteville,NC,28306,(910) 485-3246,jdmroofing@nc.rr.com,https://www.roofingcontractorfayetteville.com
Metal Roofing Corp,Serving theHolly Springs Area,,,(919) 677-0252,metalroof@bellsouth.net,http://www.metalroofcorp.com
"Hunter Exteriors, Llc",Indian Trail,NC,28079,(704) 412-4037,jason@hunterexteriorsnc.com,https://www.hunterexteriorsnc.com
Beacon Roofing Supply,Greensboro,NC,27406,(336) 274-7300,jmassarelli@beaconroofingsupply.com,https://www.becn.com
Trent Builders,Indian Trail,NC,28079,(704) 201-4027,kevin@trentbuilders.com,https://trentbuilders.com
Roofing Tools & Equipment,Raleigh,NC,27610,(919) 255-6633,darayl@roofingtool.com,http://roofingtool.com
Expert Home Services,Serving theCharlotte Area,,,(704) 858-2456,premierpaintingandsiding@outlook.com,
Dave's Roofing & Copper Designs,Gastonia,NC,28054,(866) 766-3940,dave@davesroofingonline.com,https://davesroofingonline.com
Superior Home Solutions,Kannapolis,NC,28083,(704) 436-4019,psofia@carolina.rr.com,
"Azteca Construction, Llc",Angier,NC,27501,(919) 207-0324,c.aztecaroofing@hotmail.com,https://www.aztecaconstructionllc.com
Alert Construction,Greensboro,NC,27407,(336) 275-3009,ed@alerthomerepair.com,http://www.alerthomerepair.com
Mcj Construction,Serving theCharlotte Area,,,(704) 651-1234,mcjconstructionnc@gmail.com,
Wilson And Sons Roofing,Raleigh,NC,27615,(919) 787-3253,david@wilsonandsonsroofing.com,https://wilsonandsonsroofing.com
Atlantic Roofing Company,Wilmington,NC,28412,(910) 799-3858,todd@atlanticroofingcompany.com,https://atlanticroofingcompany.com
Ronald Gipson Inc. Roofing And Sheet Metal,Raleigh,NC,27609,(919) 877-8661,ronaldgipsoninc@gmail.com,https://www.ronaldgipsoninc.com
Roach Roofing & Construction,Durham,NC,27713,(919) 667-0871,roachlamburgroofing@hotmail.com,http://roachlamburgroofing.com
The M1 Roofing Group,Indian Trail,NC,28079,(704) 234-2961,mattmanus@m1roofing.com,http://m1roofing.com